<?xml version="1.0" encoding="UTF-8"?>
<kml xmlns="http://www.opengis.net/kml/2.2">
<Document>
<Style id="lowElev"><LineStyle><color>ff0000ff</color><width>3</width></LineStyle></Style>
<Style id="midElev"><LineStyle><color>ff00ffff</color><width>3</width></LineStyle></Style>
<Style id="highElev"><LineStyle><color>ff00ff00</color><width>3</width></LineStyle></Style>
<Placemark>
  <name>Stream 1 (Elev: 694m)</name>
  <styleUrl>#midElev</styleUrl>
  <LineString>
    <tessellate>1</tessellate>
    <coordinates>31.416333,-15.395317,693.6 31.416303,-15.395346,693.6 31.416264,-15.395400,693.6 31.416225,-15.395453,693.6 31.416055,-15.395701,700.5 31.415953,-15.395820,692.1 31.415832,-15.395956,692.1 31.415779,-15.396013,692.1 31.415764,-15.396033,692.1 31.415738,-15.396061,692.1 31.415670,-15.396153,692.1 31.415625,-15.396200,692.1 31.415628,-15.396213,692.1 31.415644,-15.396203,692.1 31.415672,-15.396185,692.1 31.415748,-15.396133,692.1 31.415852,-15.396042,692.1 31.415989,-15.395918,692.1 31.416163,-15.395725,700.5 31.416333,-15.395504,700.5 31.416377,-15.395438,693.6 31.416442,-15.395319,693.6 31.416494,-15.395225,693.6 31.416557,-15.395084,693.6 31.416561,-15.395059,693.6 31.416488,-15.395182,693.6 31.416385,-15.395325,693.6 31.416259,-15.395520,700.5 31.416178,-15.395630,700.5 31.416018,-15.395858,700.5 31.415738,-15.396197,692.1 31.415650,-15.396303,692.1 31.415555,-15.396411,696.9 31.415514,-15.396463,696.9 31.415521,-15.396465,696.9 31.415546,-15.396449,696.9 31.415621,-15.396388,696.9 31.415710,-15.396294,692.1 31.415880,-15.396101,692.1 31.416273,-15.395521,700.5 31.416498,-15.395149,693.6 31.416581,-15.394980,693.6 31.416649,-15.394843,693.6 31.416656,-15.394834,693.6 31.416625,-15.394896,693.6 31.416522,-15.395046,693.6 31.416448,-15.395164,693.6 31.416250,-15.395470,693.6 31.415711,-15.396164,692.1 31.415475,-15.396421,696.9 31.415411,-15.396487,696.9 31.415399,-15.396490,696.9 31.415652,-15.396233,692.1 31.415915,-15.395958,692.1 31.416278,-15.395546,700.5 31.416407,-15.395366,693.6 31.416699,-15.394983,693.6 31.416782,-15.394881,693.6 31.416704,-15.394957,693.6 31.416635,-15.395034,693.6 31.416414,-15.395285,693.6 31.416033,-15.395699,700.5 31.415587,-15.396120,692.1 31.415057,-15.396555,703.0 31.414897,-15.396670,703.0 31.414828,-15.396714,703.0 31.414907,-15.396616,703.0 31.415098,-15.396420,703.0 31.415377,-15.396112,692.1 31.415536,-15.395936,692.1 31.415830,-15.395593,692.1 31.416074,-15.395286,693.6 31.416300,-15.395016,693.6 31.416320,-15.395006,693.6 31.416286,-15.395062,693.6 31.416197,-15.395173,693.6 31.416008,-15.395395,693.6 31.415573,-15.395880,692.1 31.415311,-15.396135,692.1 31.415027,-15.396372,703.0 31.414990,-15.396400,703.0 31.415012,-15.396381,703.0 31.415268,-15.396164,692.1 31.415615,-15.395845,692.1 31.416006,-15.395449,693.6 31.416389,-15.395063,693.6 31.416514,-15.394933,693.6 31.416655,-15.394768,693.6 31.416712,-15.394711,693.6 31.416653,-15.394811,693.6 31.416492,-15.394995,693.6 31.415960,-15.395634,692.1 31.415346,-15.396257,692.1 31.415209,-15.396370,696.9 31.415361,-15.396194,692.1 31.415639,-15.395836,692.1 31.416081,-15.395283,693.6 31.416235,-15.395107,693.6 31.416260,-15.395084,693.6 31.416211,-15.395173,693.6 31.416125,-15.395325,693.6 31.415754,-15.395822,692.1 31.415433,-15.396157,692.1 31.415214,-15.396368,696.9 31.415096,-15.396471,703.0 31.415123,-15.396446,703.0 31.415285,-15.396312,692.1 31.416294,-15.395300,693.6 31.416674,-15.394850,693.6 31.416841,-15.394670,692.8 31.417025,-15.394447,686.9 31.416802,-15.394769,693.6 31.416108,-15.395682,700.5 31.415571,-15.396231,692.1 31.415386,-15.396398,696.9 31.415308,-15.396459,696.9 31.415332,-15.396431,696.9 31.415784,-15.395949,692.1 31.416330,-15.395302,693.6 31.416643,-15.394918,693.6 31.416825,-15.394678,693.6 31.416915,-15.394574,686.9 31.416751,-15.394822,693.6 31.416022,-15.395780,700.5 31.415568,-15.396245,692.1 31.415368,-15.396425,696.9 31.414991,-15.396723,703.0 31.414970,-15.396740,703.0 31.415042,-15.396655,703.0 31.415313,-15.396411,696.9 31.415693,-15.396037,692.1 31.416443,-15.395178,693.6 31.416558,-15.395031,693.6 31.416685,-15.394875,693.6 31.416741,-15.394808,693.6 31.416712,-15.394833,693.6 31.416478,-15.395111,693.6 31.416127,-15.395507,700.5 31.415388,-15.396266,692.1 31.415098,-15.396519,703.0 31.415043,-15.396563,703.0 31.415329,-15.396245,692.1 31.415747,-15.395761,692.1 31.416350,-15.395045,693.6 31.417325,-15.393721,694.5 31.417413,-15.393584,694.5 31.417529,-15.393426,694.5 31.417485,-15.393485,694.5 31.416974,-15.394216,686.9 31.416162,-15.395221,693.6 31.415233,-15.396176,692.1 31.414995,-15.396378,703.0 31.414958,-15.396406,703.0 31.414975,-15.396388,703.0 31.415254,-15.396066,692.1 31.415528,-15.395734,692.1 31.415830,-15.395346,689.5 31.415958,-15.395159,689.5 31.416163,-15.394895,693.6 31.416210,-15.394827,693.6 31.416172,-15.394937,693.6 31.416069,-15.395124,693.6 31.415813,-15.395498,692.1 31.415368,-15.396057,692.1 31.414987,-15.396409,703.0 31.414966,-15.396432,703.0 31.415026,-15.396327,703.0 31.415260,-15.396064,692.1 31.415771,-15.395449,689.5 31.416085,-15.395056,693.6 31.416300,-15.394784,693.6 31.416209,-15.394937,693.6 31.416103,-15.395070,693.6 31.415803,-15.395461,689.5 31.415465,-15.395854,692.1 31.415126,-15.396204,699.8 31.415037,-15.396285,699.8 31.415283,-15.396029,692.1 31.415421,-15.395899,692.1 31.415500,-15.395797,692.1 31.415623,-15.395647,692.1 31.415701,-15.395555,692.1 31.415706,-15.395548,692.1 31.415705,-15.395618,692.1 31.415599,-15.395831,692.1 31.415417,-15.396071,692.1 31.415263,-15.396214,692.1 31.414998,-15.396410,703.0 31.414833,-15.396505,703.0 31.414783,-15.396524,703.0 31.414742,-15.396536,703.0 31.414725,-15.396526,703.0 31.414609,-15.396625,703.0 31.416226,-15.394499,688.2 31.415990,-15.394712,689.5 31.415850,-15.394866,689.5 31.415783,-15.394939,689.5 31.415585,-15.395152,689.5 31.415427,-15.395356,689.5 31.415381,-15.395432,689.5 31.415486,-15.395328,689.5 31.415578,-15.395238,689.5 31.416139,-15.394622,688.2 31.416312,-15.394421,688.2 31.416881,-15.393710,694.5 31.416976,-15.393589,694.5 31.416917,-15.393635,694.5 31.416514,-15.394255,688.2 31.416288,-15.394577,688.2 31.416228,-15.394648,688.2 31.416107,-15.394796,693.6 31.416117,-15.394773,693.6 31.416182,-15.394724,693.6 31.416450,-15.394790,693.6 31.416460,-15.394756,693.6 31.416543,-15.394572,688.2 31.416617,-15.394323,688.2 31.416659,-15.394194,688.2 31.416687,-15.394155,688.2 31.416716,-15.394141,688.2 31.416763,-15.394104,688.2 31.416891,-15.394004,686.9 31.417009,-15.393890,686.9 31.417017,-15.393885,686.9 31.417287,-15.395493,698.3 31.417209,-15.395548,698.3 31.416823,-15.395851,700.5 31.416608,-15.396022,700.5 31.416042,-15.396510,707.7 31.415657,-15.396809,696.9 31.415552,-15.396887,696.9 31.415627,-15.396846,696.9 31.415955,-15.396623,696.9 31.416668,-15.396036,700.5 31.418359,-15.394594,690.2 31.419483,-15.393546,685.8</coordinates>
  </LineString>
</Placemark>
<Placemark>
  <name>Stream 3 (Elev: 701m)</name>
  <styleUrl>#midElev</styleUrl>
  <LineString>
    <tessellate>1</tessellate>
    <coordinates>31.416737,-15.396385,707.7 31.416671,-15.396432,707.7 31.416433,-15.396603,707.7 31.415999,-15.396900,696.9 31.415847,-15.396986,696.9 31.415664,-15.397087,696.9 31.415616,-15.397116,696.9 31.415557,-15.397146,696.9 31.415608,-15.397088,696.9 31.415667,-15.397032,696.9 31.415914,-15.396808,696.9 31.416256,-15.396488,707.7 31.416424,-15.396298,700.5 31.416801,-15.395880,700.5 31.417022,-15.395667,698.3 31.417483,-15.395188,692.8 31.417590,-15.395055,692.8 31.417557,-15.395099,692.8 31.417516,-15.395152,692.8 31.417371,-15.395320,692.8 31.417235,-15.395463,692.8 31.416879,-15.395829,698.3 31.416362,-15.396398,707.7 31.415905,-15.396849,696.9 31.415739,-15.396998,696.9 31.415669,-15.397061,696.9 31.415735,-15.397036,696.9 31.416054,-15.396835,707.7 31.416338,-15.396608,707.7 31.416517,-15.396467,707.7 31.416857,-15.396193,698.3 31.417059,-15.396055,698.3 31.417331,-15.395846,698.3 31.417410,-15.395801,698.3 31.417501,-15.395734,698.3 31.417471,-15.395783,698.3 31.417320,-15.395911,698.3 31.417210,-15.396013,698.3 31.416637,-15.396417,707.7 31.416335,-15.396632,707.7 31.416247,-15.396695,707.7 31.416128,-15.396774,707.7 31.416179,-15.396735,707.7 31.416535,-15.396496,707.7 31.417030,-15.396158,698.3 31.417309,-15.395986,698.3 31.417973,-15.395525,701.7 31.418081,-15.395454,696.4 31.418180,-15.395385,696.4 31.418191,-15.395382,696.4 31.418091,-15.395457,696.4 31.417687,-15.395772,701.7 31.417003,-15.396289,698.3 31.416523,-15.396660,707.7 31.416414,-15.396751,707.7 31.416448,-15.396725,707.7 31.416686,-15.396520,707.7 31.417203,-15.396112,698.3 31.417463,-15.395921,698.3 31.417545,-15.395864,698.3 31.417629,-15.395800,698.3 31.417536,-15.395872,698.3 31.416883,-15.396314,698.3 31.416295,-15.396715,707.7 31.416110,-15.396832,707.7 31.416133,-15.396813,707.7 31.416471,-15.396513,707.7 31.417170,-15.395932,698.3 31.417414,-15.395720,698.3 31.417677,-15.395514,701.7 31.417963,-15.395278,696.4 31.418010,-15.395237,696.4 31.417795,-15.395440,696.4 31.417599,-15.395593,698.3 31.416884,-15.396124,698.3 31.416743,-15.396234,700.5 31.416525,-15.396407,707.7 31.416488,-15.396431,707.7 31.416534,-15.396370,707.7 31.416619,-15.396278,700.5 31.417227,-15.395737,698.3 31.417833,-15.395233,696.4 31.418018,-15.395073,696.4 31.417716,-15.395367,696.4 31.417100,-15.395870,698.3 31.416745,-15.396132,700.5 31.416857,-15.396006,698.3 31.418027,-15.394765,696.4 31.418495,-15.394310,690.2 31.418583,-15.394243,691.2 31.418459,-15.394347,690.2 31.417776,-15.395005,696.4 31.417089,-15.395628,698.3 31.416973,-15.395711,698.3 31.416885,-15.395783,698.3 31.417130,-15.395499,698.3 31.417598,-15.394931,692.8 31.417674,-15.394824,696.4 31.417691,-15.394798,696.4 31.417363,-15.395122,692.8 31.416908,-15.395490,698.3 31.416767,-15.395602,700.5 31.417245,-15.395142,692.8 31.417986,-15.394359,690.2 31.418433,-15.393912,690.2 31.418456,-15.393893,690.2 31.418218,-15.394144,690.2 31.418150,-15.394218,690.2 31.418055,-15.394322,690.2 31.418137,-15.394202,690.2 31.418706,-15.393532,683.6 31.418976,-15.393194,683.6 31.419002,-15.393137,683.6 31.418704,-15.393417,683.6 31.418295,-15.393728,686.9 31.417956,-15.393930,690.2 31.417914,-15.393951,690.2 31.417844,-15.393957,690.2 31.417992,-15.393707,686.9 31.417189,-15.394716,692.8 31.416555,-15.394956,693.6 31.416346,-15.395018,693.6 31.416002,-15.395078,689.5 31.415939,-15.395081,689.5 31.415947,-15.395044,689.5 31.416213,-15.394843,693.6 31.416293,-15.394787,693.6 31.416461,-15.394677,693.6 31.416521,-15.394649,693.6 31.416068,-15.393888,688.2 31.415841,-15.394187,687.8 31.415414,-15.394744,689.5 31.414628,-15.395651,699.8 31.414199,-15.396158,701.2 31.414138,-15.396292,701.2 31.414164,-15.396259,701.2 31.414182,-15.396237,701.2 31.414233,-15.396171,701.2 31.414568,-15.395817,699.8 31.415164,-15.395173,695.4 31.415844,-15.394413,687.8 31.416110,-15.394036,688.2 31.416170,-15.393950,688.2 31.416141,-15.393996,688.2 31.416121,-15.394024,688.2 31.415878,-15.394328,687.8 31.415711,-15.394509,687.8 31.415541,-15.394693,689.5 31.415394,-15.394848,689.5 31.415144,-15.395083,695.4 31.415100,-15.395138,695.4 31.415055,-15.395182,695.4 31.415203,-15.395009,689.5 31.415687,-15.394506,687.8 31.416215,-15.393924,688.2 31.416472,-15.393635,698.2 31.416553,-15.393567,698.2 31.416528,-15.393627,698.2 31.416447,-15.393735,698.2 31.416123,-15.394145,688.2 31.415760,-15.394591,687.8 31.415528,-15.394838,689.5 31.415478,-15.394893,689.5 31.415542,-15.394837,689.5 31.415810,-15.394548,687.8 31.415934,-15.394403,687.8 31.416357,-15.393853,688.2 31.416626,-15.393468,698.2 31.416674,-15.393399,698.2 31.416728,-15.393309,698.2 31.416722,-15.393343,698.2 31.416705,-15.393376,698.2 31.416411,-15.393963,688.2 31.415402,-15.395237,689.5 31.414820,-15.395867,699.8 31.414638,-15.396042,699.8 31.414615,-15.396064,699.8 31.414629,-15.396041,699.8 31.414812,-15.395854,699.8 31.415357,-15.395300,689.5 31.415605,-15.395020,689.5 31.416717,-15.393600,698.2 31.416838,-15.393447,698.2 31.416983,-15.393219,694.5 31.416987,-15.393223,694.5 31.416922,-15.393342,694.5 31.416611,-15.393821,688.2 31.415664,-15.395000,689.5 31.415427,-15.395261,689.5 31.414842,-15.395866,699.8 31.414756,-15.395971,699.8 31.414625,-15.396104,699.8 31.414605,-15.396117,699.8 31.414653,-15.396060,699.8 31.414910,-15.395780,699.8 31.415726,-15.394836,689.5 31.415999,-15.394535,687.8 31.416180,-15.394287,688.2 31.416521,-15.393759,698.2 31.416589,-15.393669,698.2 31.416698,-15.393510,698.2 31.416710,-15.393515,698.2 31.416639,-15.393707,698.2 31.416566,-15.393862,688.2 31.416410,-15.394083,688.2 31.415724,-15.394942,689.5 31.415010,-15.395667,699.8 31.414839,-15.395837,699.8 31.414586,-15.396079,699.8 31.414541,-15.396118,699.8 31.414561,-15.396090,699.8 31.414583,-15.396064,699.8 31.414868,-15.395785,699.8 31.415487,-15.395075,689.5 31.416177,-15.394202,688.2 31.416497,-15.393719,698.2 31.416568,-15.393605,698.2 31.416551,-15.393678,698.2 31.416508,-15.393852,688.2 31.416444,-15.393981,688.2 31.416094,-15.394531,688.2 31.415932,-15.394738,689.5 31.415418,-15.395280,689.5 31.415197,-15.395486,692.1 31.415166,-15.395511,699.8 31.415140,-15.395528,699.8 31.415157,-15.395500,699.8 31.415171,-15.395479,695.4 31.415207,-15.395423,689.5 31.415486,-15.395070,689.5 31.416078,-15.394324,688.2 31.416581,-15.393656,698.2 31.416691,-15.393514,698.2 31.416871,-15.393324,694.5 31.416872,-15.393415,694.5 31.416824,-15.393653,698.2 31.416788,-15.393769,698.2 31.416726,-15.393951,688.2 31.416371,-15.394566,688.2 31.416168,-15.394841,693.6 31.415602,-15.395426,689.5 31.415209,-15.395734,692.1 31.415141,-15.395777,699.8 31.414979,-15.395855,699.8 31.414973,-15.395853,699.8 31.415043,-15.395698,699.8 31.415080,-15.395602,699.8 31.415381,-15.395041,689.5 31.415554,-15.394758,689.5 31.415770,-15.394455,687.8 31.415983,-15.394144,687.8 31.416732,-15.393271,698.2 31.416951,-15.393080,694.5 31.417017,-15.393046,694.5 31.417147,-15.393031,694.5 31.417330,-15.393134,694.5 31.417396,-15.393282,694.5 31.417364,-15.393378,694.5 31.416722,-15.394241,688.2 31.415654,-15.395144,689.5 31.414983,-15.395504,699.8 31.414916,-15.395528,699.8 31.414816,-15.395545,699.8 31.414801,-15.395525,699.8 31.414942,-15.395253,695.4 31.415334,-15.394588,687.8 31.416107,-15.393516,698.2 31.416441,-15.393185,698.2 31.416641,-15.393170,698.2 31.416845,-15.393352,694.5 31.416842,-15.393661,694.5 31.416462,-15.394210,688.2 31.416278,-15.394375,688.2 31.415481,-15.394875,689.5 31.415004,-15.395036,695.4 31.414914,-15.395023,695.4 31.415000,-15.394864,695.4 31.415099,-15.394744,695.4 31.415767,-15.393971,687.8 31.416015,-15.393693,698.2 31.416677,-15.393014,698.2 31.416935,-15.392858,704.5 31.417094,-15.392910,704.5 31.417121,-15.393245,694.5 31.416578,-15.393897,688.2 31.416371,-15.394068,688.2 31.415760,-15.394395,687.8 31.415574,-15.394446,687.8 31.415120,-15.394472,687.6 31.415002,-15.394326,687.6 31.415102,-15.394126,687.6 31.415225,-15.393960,687.8 31.416002,-15.393323,699.0 31.416602,-15.392998,698.2 31.416686,-15.392985,698.2 31.416912,-15.393116,694.5 31.416672,-15.393601,698.2 31.415815,-15.394452,687.8 31.415208,-15.394855,689.5 31.415075,-15.394881,695.4 31.415116,-15.394701,695.4 31.415165,-15.394621,687.6 31.415585,-15.394095,687.8 31.416085,-15.393711,698.2 31.416268,-15.393682,698.2 31.416319,-15.393845,688.2 31.416290,-15.393929,688.2 31.415857,-15.394461,687.8 31.415019,-15.395102,695.4 31.414581,-15.395239,695.4 31.414557,-15.395124,695.4 31.414584,-15.395065,695.4 31.414998,-15.394663,695.4 31.415791,-15.394177,687.8 31.415907,-15.394137,687.8 31.416088,-15.394118,688.2 31.416123,-15.394145,688.2 31.416109,-15.394284,688.2 31.416059,-15.394357,688.2 31.415648,-15.394733,689.5 31.414956,-15.395163,695.4 31.414685,-15.395228,695.4 31.414654,-15.395217,695.4 31.414598,-15.395134,695.4 31.414850,-15.394722,695.4 31.415057,-15.394521,687.6 31.415334,-15.394265,687.8 31.416161,-15.393683,698.2 31.416541,-15.393504,698.2 31.416591,-15.393499,698.2 31.416627,-15.393514,698.2 31.416646,-15.393544,698.2 31.416598,-15.393741,698.2 31.416149,-15.394269,688.2 31.415952,-15.394443,687.8 31.415321,-15.394885,689.5 31.415150,-15.394972,695.4 31.414839,-15.395072,695.4 31.414739,-15.394982,695.4 31.414747,-15.394942,695.4 31.414907,-15.394685,695.4 31.415041,-15.394546,687.6 31.415557,-15.394117,687.8 31.415734,-15.394003,687.8 31.416109,-15.393827,688.2 31.416160,-15.393814,698.2 31.416208,-15.393810,698.2 31.416271,-15.393848,688.2 31.416023,-15.394161,688.2 31.415244,-15.394743,689.5 31.414861,-15.394958,695.4 31.414770,-15.394973,695.4 31.414746,-15.394963,695.4 31.414755,-15.394845,695.4 31.414801,-15.394764,695.4 31.415327,-15.394136,687.8 31.415986,-15.393534,699.0 31.416111,-15.393427,698.2 31.416201,-15.393367,698.2 31.416299,-15.393301,698.2 31.416324,-15.393368,698.2 31.416283,-15.393437,698.2 31.415800,-15.394019,687.8 31.415171,-15.394538,687.6 31.414996,-15.394653,695.4 31.414873,-15.394723,695.4 31.414795,-15.394763,695.4 31.414678,-15.394777,695.4 31.414646,-15.394615,687.6 31.414768,-15.394408,687.6 31.414858,-15.394317,687.6 31.415005,-15.394184,687.6 31.415808,-15.393739,699.0 31.416236,-15.393640,698.2 31.416434,-15.393714,698.2 31.416369,-15.393874,688.2 31.416291,-15.393971,688.2 31.415613,-15.394488,687.8 31.415470,-15.394569,687.8 31.415117,-15.394744,695.4 31.414993,-15.394767,695.4 31.414993,-15.394731,695.4 31.415030,-15.394669,695.4 31.415105,-15.394583,687.6 31.415655,-15.394051,687.8 31.416299,-15.393493,698.2 31.416367,-15.393448,698.2 31.416406,-15.393413,698.2 31.416302,-15.393607,698.2 31.416217,-15.393722,698.2 31.416106,-15.393834,688.2 31.415635,-15.394269,687.8 31.415271,-15.394526,687.8 31.415216,-15.394553,687.8 31.415167,-15.394577,687.6 31.415154,-15.394544,687.6 31.415172,-15.394507,687.8 31.415340,-15.394262,687.8 31.415415,-15.394166,687.8 31.415571,-15.393980,687.8 31.415593,-15.393961,687.8 31.415538,-15.394046,687.8 31.415487,-15.394100,687.8 31.415197,-15.394330,687.8 31.415156,-15.394361,687.6 31.415120,-15.394384,687.6 31.415082,-15.394403,687.6 31.415079,-15.394379,687.6 31.415165,-15.394246,687.6 31.415518,-15.393914,687.8 31.415631,-15.393827,687.8 31.415938,-15.393652,699.0 31.416011,-15.393652,698.2 31.415936,-15.393801,699.0 31.415886,-15.393867,687.8 31.415420,-15.394255,687.8 31.415347,-15.394300,687.8 31.415229,-15.394363,687.8 31.415261,-15.394253,687.8 31.415517,-15.393898,687.8 31.415585,-15.393823,687.8 31.415631,-15.393771,699.0 31.415675,-15.393735,699.0 31.415721,-15.393702,699.0 31.415764,-15.393697,699.0 31.415775,-15.393805,699.0 31.415571,-15.394058,687.8 31.415221,-15.394289,687.8 31.415132,-15.394330,687.6 31.414884,-15.394332,687.6 31.414854,-15.394299,687.6 31.414867,-15.394134,687.6 31.414948,-15.394025,687.6 31.415600,-15.393579,699.0 31.416198,-15.393374,698.2 31.416454,-15.393412,698.2 31.416479,-15.393443,698.2 31.416440,-15.393653,698.2 31.415551,-15.394405,687.8 31.415030,-15.394707,695.4 31.414968,-15.394725,695.4 31.414948,-15.394716,695.4 31.415103,-15.394493,687.6 31.415206,-15.394372,687.8 31.415368,-15.394207,687.8 31.415788,-15.393802,699.0 31.415825,-15.393776,699.0 31.415888,-15.393766,699.0 31.415909,-15.393901,687.8 31.415409,-15.394571,687.8 31.414929,-15.394983,695.4 31.414739,-15.395140,695.4 31.414357,-15.395388,695.4 31.414305,-15.395412,694.1 31.414406,-15.395254,695.4 31.414992,-15.394821,695.4 31.415448,-15.394608,687.8 31.415553,-15.394647,687.8 31.415557,-15.394667,689.5 31.415418,-15.394867,689.5 31.414919,-15.395252,695.4 31.414796,-15.395324,695.4 31.414513,-15.395453,695.4 31.414477,-15.395454,695.4 31.414490,-15.395401,695.4 31.414522,-15.395351,695.4 31.415013,-15.394934,695.4 31.415758,-15.394532,687.8 31.415960,-15.394517,687.8 31.415986,-15.394542,687.8 31.415944,-15.394720,689.5 31.415618,-15.395013,689.5 31.414960,-15.395379,695.4 31.414838,-15.395409,695.4 31.414831,-15.395380,695.4 31.414856,-15.395347,695.4 31.415070,-15.395139,695.4 31.415160,-15.395074,695.4 31.415434,-15.394944,689.5 31.415569,-15.394974,689.5 31.415582,-15.395005,689.5 31.415585,-15.395178,689.5 31.415391,-15.395442,689.5 31.414610,-15.395874,699.8 31.414296,-15.395914,701.2 31.414261,-15.395907,701.2 31.414208,-15.395864,701.2 31.414335,-15.395765,701.2 31.415309,-15.395374,689.5 31.415814,-15.395290,689.5 31.415835,-15.395312,689.5 31.415719,-15.395420,689.5 31.415637,-15.395476,689.5 31.415062,-15.395761,699.8 31.414916,-15.395817,699.8 31.414664,-15.395880,699.8 31.414731,-15.395816,699.8 31.414785,-15.395787,699.8 31.414941,-15.395707,699.8 31.415174,-15.395643,692.1 31.415315,-15.395679,692.1 31.415344,-15.395709,692.1 31.415407,-15.395805,692.1 31.415409,-15.395833,692.1 31.415122,-15.396049,699.8 31.414779,-15.396158,699.8 31.414704,-15.396163,699.8 31.414731,-15.396135,699.8 31.414786,-15.396106,699.8 31.415507,-15.395776,692.1 31.416364,-15.395519,700.5 31.416442,-15.395517,700.5 31.416538,-15.395537,700.5 31.416485,-15.395622,700.5 31.416424,-15.395670,700.5 31.416339,-15.395726,700.5 31.415817,-15.395976,692.1 31.415586,-15.396064,692.1 31.414901,-15.396266,699.8 31.414838,-15.396267,699.8 31.414778,-15.396273,699.8 31.414841,-15.396217,699.8 31.415101,-15.396083,699.8 31.415349,-15.395958,692.1 31.415384,-15.395945,692.1 31.415438,-15.395934,692.1 31.415442,-15.395951,692.1 31.415456,-15.395960,692.1 31.415547,-15.395956,692.1 31.415741,-15.395964,692.1 31.415802,-15.395971,692.1 31.415974,-15.396066,692.1 31.415975,-15.396249,692.1 31.415953,-15.396299,692.1 31.415912,-15.396353,696.9 31.415648,-15.396572,696.9 31.415564,-15.396615,696.9 31.415443,-15.396658,696.9 31.414999,-15.396748,703.0 31.414867,-15.396742,703.0 31.414896,-15.396704,703.0 31.415369,-15.396541,696.9 31.415522,-15.396495,696.9 31.416036,-15.396394,707.7 31.416097,-15.396397,707.7 31.416140,-15.396414,707.7 31.416238,-15.396526,707.7 31.416151,-15.396705,707.7 31.416046,-15.396775,707.7 31.415344,-15.397069,696.9 31.414775,-15.397151,704.3 31.414686,-15.397148,703.0 31.414681,-15.397135,703.0 31.414916,-15.396978,703.0 31.415029,-15.396922,703.0 31.415176,-15.396845,696.9 31.415505,-15.396699,696.9 31.415691,-15.396694,696.9 31.415731,-15.396815,696.9 31.415712,-15.396858,696.9 31.415338,-15.397085,696.9 31.414840,-15.397197,704.3 31.414779,-15.397196,704.3 31.414638,-15.397145,703.0 31.414755,-15.397006,703.0 31.414862,-15.396945,703.0 31.415559,-15.396686,696.9 31.415744,-15.396642,696.9 31.416110,-15.396656,707.7 31.416139,-15.396690,707.7 31.416071,-15.397103,707.7 31.415567,-15.397083,696.9 31.415395,-15.397113,696.9 31.415025,-15.397115,703.0 31.414957,-15.397048,703.0 31.415599,-15.396767,696.9 31.416586,-15.396531,707.7 31.416714,-15.396542,707.7 31.416901,-15.396605,708.6 31.416591,-15.396843,707.7 31.416418,-15.396914,707.7 31.415597,-15.397107,696.9 31.415165,-15.397093,703.0 31.415134,-15.397082,703.0 31.415195,-15.396995,696.9 31.416021,-15.396676,707.7 31.416244,-15.396599,707.7 31.416724,-15.396506,707.7 31.416799,-15.396589,707.7 31.416338,-15.396833,707.7 31.415204,-15.397056,696.9 31.414987,-15.397047,703.0 31.415156,-15.396963,703.0 31.415340,-15.396909,696.9 31.416232,-15.396703,707.7 31.416733,-15.396695,707.7 31.416819,-15.396806,707.7 31.416495,-15.396977,707.7 31.415624,-15.397219,701.2 31.415050,-15.397269,704.3 31.415031,-15.397228,704.3 31.415088,-15.397191,704.3 31.415184,-15.397132,696.9 31.416108,-15.396770,707.7 31.416855,-15.396557,708.6 31.417020,-15.396656,708.6 31.416734,-15.396847,707.7 31.416023,-15.397063,707.7 31.415733,-15.397087,696.9 31.415705,-15.397079,696.9 31.415744,-15.397022,696.9 31.416103,-15.396900,707.7 31.416214,-15.396870,707.7 31.416439,-15.396860,707.7 31.416520,-15.396994,707.7 31.416506,-15.397041,707.7 31.416493,-15.397091,707.7 31.416292,-15.397322,714.4 31.415807,-15.397508,701.2 31.415736,-15.397516,701.2 31.415522,-15.397490,701.2 31.415510,-15.397408,701.2 31.415543,-15.397376,701.2 31.416159,-15.397174,714.4 31.416358,-15.397107,707.7 31.416920,-15.397032,708.6 31.416992,-15.397034,708.6 31.417031,-15.397045,708.6 31.417078,-15.397100,708.6 31.416817,-15.397254,714.4 31.415978,-15.397479,701.2 31.415713,-15.397477,701.2 31.415687,-15.397449,701.2 31.416026,-15.397281,714.4 31.416338,-15.397200,714.4 31.416445,-15.397283,714.4 31.416442,-15.397330,714.4 31.416439,-15.397381,714.4 31.416191,-15.397699,714.4 31.415565,-15.397894,701.2 31.415291,-15.397866,701.2 31.415257,-15.397845,701.2 31.415294,-15.397717,701.2 31.415961,-15.397392,701.2 31.416577,-15.397198,714.4 31.416745,-15.397249,714.4 31.416672,-15.397446,714.4 31.416253,-15.397780,714.4 31.416083,-15.397850,714.4 31.415452,-15.397909,701.2 31.415344,-15.397892,701.2 31.415188,-15.397779,701.2 31.415370,-15.397635,701.2 31.415498,-15.397583,701.2 31.416284,-15.397465,714.4 31.416605,-15.397573,714.4 31.416677,-15.397762,714.4 31.416660,-15.397805,714.4 31.416430,-15.397948,714.4 31.416355,-15.397963,714.4 31.415914,-15.397895,701.2 31.415678,-15.397728,701.2 31.415637,-15.397623,701.2 31.416093,-15.397403,714.4 31.416613,-15.397288,714.4 31.416681,-15.397296,714.4 31.416868,-15.397418,723.7 31.416750,-15.397700,714.4 31.416655,-15.397802,714.4 31.416040,-15.398157,714.7 31.415622,-15.398189,702.2 31.415571,-15.398173,702.2 31.415464,-15.398058,702.2 31.415480,-15.398012,702.2 31.415802,-15.397709,701.2 31.415963,-15.397612,701.2 31.416513,-15.397332,714.4 31.416594,-15.397317,714.4 31.416652,-15.397310,714.4 31.416835,-15.397488,714.4 31.416756,-15.397910,714.4 31.416378,-15.398274,714.7 31.416283,-15.398312,714.7 31.415867,-15.398289,702.2 31.415798,-15.398257,702.2 31.415741,-15.398222,702.2 31.415630,-15.398045,702.2 31.415864,-15.397796,701.2 31.416650,-15.397395,714.4 31.416924,-15.397335,723.7 31.417028,-15.397402,723.7 31.417025,-15.397451,723.7 31.416713,-15.397773,714.4 31.416575,-15.397867,714.4 31.415994,-15.398034,702.2 31.415898,-15.398034,702.2 31.415648,-15.397918,701.2 31.415645,-15.397682,701.2 31.415712,-15.397600,701.2 31.415798,-15.397517,701.2 31.416485,-15.397195,714.4 31.416994,-15.397214,723.7 31.417032,-15.397393,723.7 31.416628,-15.397839,714.4 31.416091,-15.398054,714.7 31.415966,-15.398054,702.2 31.415717,-15.397980,701.2 31.415659,-15.397903,701.2 31.415729,-15.397659,701.2 31.416219,-15.397254,714.4 31.416388,-15.397143,707.7 31.416812,-15.396975,707.7 31.417025,-15.397024,708.6 31.417024,-15.397078,708.6 31.416730,-15.397526,714.4 31.415900,-15.398042,702.2 31.415324,-15.398037,702.2 31.415237,-15.398001,702.2 31.415161,-15.397961,704.3 31.415021,-15.397747,704.3 31.415039,-15.397685,704.3 31.415356,-15.397415,701.2 31.415953,-15.397164,701.2 31.416360,-15.397149,714.4 31.416415,-15.397347,714.4 31.416246,-15.397653,714.4 31.416153,-15.397737,714.4 31.415513,-15.397894,701.2 31.415070,-15.397758,704.3 31.414963,-15.397626,704.3 31.415097,-15.397422,704.3 31.415225,-15.397342,701.2 31.416172,-15.396898,707.7 31.416475,-15.396783,707.7 31.417311,-15.396605,708.6 31.417390,-15.396613,708.6 31.417384,-15.396866,708.6 31.416466,-15.397535,714.4 31.416246,-15.397649,714.4 31.415473,-15.397836,701.2 31.415083,-15.397768,704.3 31.415024,-15.397741,704.3 31.414951,-15.397511,704.3 31.415648,-15.396964,696.9 31.416917,-15.396440,708.6 31.417303,-15.396446,708.6 31.417333,-15.396857,708.6 31.417223,-15.397021,708.6 31.416460,-15.397705,714.4 31.415728,-15.397836,701.2 31.415305,-15.397535,701.2 31.415290,-15.397298,701.2 31.415697,-15.396887,696.9 31.415889,-15.396786,696.9 31.416653,-15.396538,707.7 31.417087,-15.396690,708.6 31.416855,-15.397149,723.7 31.416750,-15.397244,714.4 31.416066,-15.397643,714.4 31.415007,-15.397627,704.3 31.414749,-15.397464,704.3 31.414725,-15.397402,704.3 31.414738,-15.397345,704.3 31.415094,-15.397047,703.0 31.415344,-15.396940,696.9 31.416470,-15.396589,707.7 31.417156,-15.396584,708.6 31.417151,-15.396854,708.6 31.416946,-15.397068,708.6 31.416242,-15.397544,714.4 31.415178,-15.397707,701.2 31.414735,-15.397513,704.3 31.414664,-15.397428,704.3 31.414636,-15.397326,704.3 31.414855,-15.396839,703.0 31.416198,-15.396095,700.5 31.417452,-15.395985,698.3 31.417654,-15.396038,698.3 31.417830,-15.396133,701.7 31.417751,-15.396786,712.0 31.416946,-15.397402,723.7 31.416755,-15.397522,714.4 31.416545,-15.397621,714.4 31.416369,-15.397684,714.4 31.415790,-15.397725,701.2 31.415583,-15.397478,701.2 31.415598,-15.397380,701.2 31.416308,-15.396685,707.7 31.416537,-15.396529,707.7 31.416834,-15.396376,707.7 31.417126,-15.396263,698.3 31.417373,-15.396169,698.3 31.417966,-15.396140,701.7 31.417581,-15.396923,708.6 31.416887,-15.397524,723.7 31.416134,-15.398006,714.7 31.415993,-15.398031,702.2 31.415664,-15.397942,701.2 31.415676,-15.397516,701.2 31.416004,-15.397168,701.2 31.416799,-15.396796,707.7 31.417292,-15.397027,708.6 31.417114,-15.397588,723.7 31.416849,-15.397804,723.7 31.416318,-15.397817,714.4 31.415916,-15.397439,701.2 31.416069,-15.396982,707.7 31.416422,-15.396731,707.7 31.417146,-15.396620,708.6 31.417359,-15.396857,708.6 31.417257,-15.397105,708.6 31.416696,-15.397557,714.4 31.416398,-15.397605,714.4 31.416329,-15.397215,714.4 31.416962,-15.396450,708.6 31.417612,-15.396147,698.3 31.418348,-15.396407,712.0 31.417809,-15.397349,724.0 31.417587,-15.397603,723.7 31.416851,-15.398343,722.3 31.416703,-15.398435,714.7 31.416315,-15.398473,714.7 31.416056,-15.398134,714.7 31.416083,-15.397846,714.4 31.416126,-15.397758,714.4 31.416467,-15.397384,714.4 31.417248,-15.397230,723.7 31.417400,-15.397268,723.7 31.417530,-15.397313,723.7 31.417796,-15.397648,724.0 31.417468,-15.398035,722.3 31.417125,-15.398224,722.3 31.416690,-15.398199,714.7 31.416433,-15.397888,714.4 31.416417,-15.397577,714.4 31.416775,-15.397123,707.7 31.417481,-15.396863,708.6 31.417730,-15.396969,712.0 31.417642,-15.397180,723.7 31.416880,-15.397763,723.7 31.416191,-15.397978,714.4 31.416006,-15.397801,714.4 31.415990,-15.397732,701.2 31.416417,-15.397150,714.4 31.417377,-15.396690,708.6 31.417491,-15.396667,708.6 31.417728,-15.396935,712.0 31.417677,-15.397051,712.0 31.417522,-15.397225,723.7 31.417403,-15.397378,723.7 31.417280,-15.397544,723.7 31.416693,-15.397992,714.7 31.416595,-15.398033,714.7 31.416237,-15.398011,714.7 31.416036,-15.397561,714.4 31.416075,-15.397422,714.4 31.416749,-15.396705,707.7 31.418570,-15.396290,699.2 31.419369,-15.396436,703.6 31.418754,-15.397071,710.3 31.417363,-15.397447,723.7 31.417151,-15.397460,723.7 31.416549,-15.397216,714.4 31.416602,-15.396636,707.7 31.417777,-15.395675,701.7 31.418652,-15.395236,696.3 31.419133,-15.395280,696.3 31.418466,-15.396131,701.7 31.417130,-15.397010,708.6 31.416874,-15.397133,708.6 31.416431,-15.397290,714.4 31.416374,-15.397281,714.4 31.416162,-15.396988,707.7 31.416128,-15.396859,707.7 31.416301,-15.396179,700.5 31.416989,-15.395363,692.8 31.417205,-15.395193,692.8 31.417924,-15.394878,696.4 31.418375,-15.395186,696.4 31.417884,-15.396098,701.7 31.416971,-15.396724,708.6 31.416812,-15.396793,707.7 31.416428,-15.396794,707.7 31.416223,-15.396401,707.7 31.416242,-15.396279,700.5 31.416810,-15.395503,700.5 31.418327,-15.394669,696.4 31.418634,-15.394964,696.3 31.418134,-15.395649,701.7 31.417889,-15.395873,701.7 31.416855,-15.396543,708.6 31.416705,-15.396597,707.7 31.416360,-15.396532,707.7 31.416302,-15.396013,700.5 31.416520,-15.395566,700.5 31.417181,-15.394977,692.8 31.417287,-15.394934,692.8 31.417696,-15.395079,696.4 31.417474,-15.395742,698.3 31.416856,-15.396168,698.3 31.416543,-15.396164,700.5 31.416135,-15.395884,700.5 31.416094,-15.395780,700.5 31.416540,-15.394796,693.6 31.416713,-15.394606,688.2 31.417755,-15.393889,690.2 31.418548,-15.393865,691.2 31.418575,-15.394593,691.2 31.417483,-15.395739,698.3 31.416741,-15.396029,700.5 31.416646,-15.396021,700.5 31.416206,-15.395704,700.5 31.416165,-15.394826,693.6 31.416265,-15.394642,688.2 31.416683,-15.394084,688.2 31.417159,-15.393859,686.9 31.417542,-15.394298,686.9 31.417000,-15.395247,692.8 31.416458,-15.395609,700.5 31.416148,-15.395583,700.5 31.416040,-15.395403,693.6 31.416237,-15.394929,693.6 31.416925,-15.394160,686.9 31.417101,-15.394024,686.9 31.417619,-15.393718,694.5 31.417844,-15.394041,690.2 31.417466,-15.394720,692.8 31.417217,-15.394968,692.8 31.416785,-15.395096,693.6 31.416636,-15.394861,693.6 31.416660,-15.394741,693.6 31.416880,-15.394288,686.9 31.417367,-15.393833,686.9 31.417769,-15.393791,686.9 31.417790,-15.394272,690.2 31.417491,-15.394781,692.8 31.417387,-15.394893,692.8 31.416960,-15.395132,692.8 31.416608,-15.395004,693.6 31.416551,-15.394468,688.2 31.416743,-15.394078,688.2 31.416921,-15.393876,686.9 31.417826,-15.393245,686.9 31.418373,-15.393192,686.9 31.418431,-15.393854,690.2 31.417651,-15.394563,686.9 31.417480,-15.394668,692.8 31.416729,-15.394844,693.6 31.416623,-15.394819,693.6 31.416340,-15.394529,688.2 31.416464,-15.393893,688.2 31.416899,-15.393344,694.5 31.417448,-15.393114,694.5 31.417985,-15.393387,686.9 31.417926,-15.393655,686.9 31.417326,-15.394766,692.8 31.417152,-15.394958,692.8 31.416624,-15.395293,693.6 31.416301,-15.395106,693.6 31.416312,-15.394601,688.2 31.416822,-15.393636,698.2 31.417516,-15.393043,694.5 31.418092,-15.393162,686.9 31.417837,-15.394016,690.2 31.417331,-15.394350,686.9 31.416704,-15.394177,688.2 31.416626,-15.394071,688.2 31.416507,-15.393454,698.2 31.416536,-15.393330,698.2 31.416754,-15.392989,698.2 31.416824,-15.392928,706.1 31.417187,-15.392810,704.5 31.417859,-15.393012,686.9 31.417940,-15.393476,686.9 31.417267,-15.394079,686.9 31.417138,-15.394145,686.9 31.416489,-15.394256,688.2 31.416304,-15.393963,688.2 31.416427,-15.393574,698.2 31.417114,-15.392696,704.5 31.417290,-15.392514,704.5 31.417824,-15.392169,701.3 31.418074,-15.392599,701.3 31.417660,-15.393708,694.5 31.417375,-15.394058,686.9 31.416364,-15.394912,693.6 31.415886,-15.395052,689.5 31.415834,-15.395028,689.5 31.415755,-15.394798,689.5 31.415793,-15.394687,689.5 31.416159,-15.394021,688.2 31.416608,-15.393700,698.2 31.417120,-15.393886,686.9 31.417212,-15.394017,686.9 31.416793,-15.395221,693.6 31.415776,-15.395888,692.1 31.415320,-15.395780,692.1 31.415239,-15.395707,692.1 31.415277,-15.394989,689.5 31.416177,-15.393598,698.2 31.416808,-15.393003,698.2 31.416892,-15.392957,704.5 31.417383,-15.393207,694.5 31.416829,-15.394713,693.6 31.415610,-15.395823,692.1 31.414820,-15.396117,699.8 31.414515,-15.395879,699.8 31.414493,-15.395793,699.8 31.414624,-15.395262,695.4 31.415430,-15.394319,687.8 31.416290,-15.393989,688.2 31.416750,-15.394415,688.2 31.416413,-15.395127,693.6 31.415880,-15.395475,689.5 31.415668,-15.395563,692.1 31.415019,-15.395699,699.8 31.414728,-15.395553,699.8 31.414715,-15.395496,699.8 31.415091,-15.394803,695.4 31.416242,-15.393757,698.2 31.416699,-15.393586,698.2 31.416765,-15.393603,698.2 31.416905,-15.393787,694.5 31.416310,-15.394714,693.6 31.415301,-15.395393,689.5 31.415093,-15.395402,695.4 31.414999,-15.395198,695.4 31.415014,-15.395131,695.4 31.415306,-15.394611,687.8 31.416061,-15.393920,688.2 31.416167,-15.393877,688.2 31.416487,-15.393922,688.2 31.416612,-15.394557,688.2 31.415979,-15.395215,689.5 31.415320,-15.395388,689.5 31.415191,-15.395378,689.5 31.414800,-15.395149,695.4 31.414775,-15.395055,695.4 31.414837,-15.394517,687.6 31.415507,-15.393508,699.0 31.416401,-15.392859,706.1 31.416780,-15.392914,706.1 31.416853,-15.393004,694.5 31.416486,-15.394001,688.2 31.415447,-15.394910,689.5 31.415282,-15.395012,689.5 31.414752,-15.395152,695.4 31.414654,-15.395018,695.4 31.414693,-15.394859,695.4 31.414728,-15.394791,695.4 31.415025,-15.394469,687.6 31.415118,-15.394396,687.6 31.415407,-15.394274,687.8 31.415445,-15.394284,687.8 31.415575,-15.394466,687.8 31.415253,-15.394881,689.5 31.414748,-15.395135,695.4 31.414477,-15.395037,695.4 31.414483,-15.394765,695.4 31.414891,-15.394205,687.6 31.415051,-15.394065,687.6 31.415435,-15.393857,687.8 31.415610,-15.393950,687.8 31.415625,-15.394008,687.8 31.415375,-15.394517,687.8 31.414779,-15.395072,695.4 31.414485,-15.395166,695.4 31.414461,-15.395142,695.4 31.414481,-15.394802,695.4 31.414529,-15.394694,695.4 31.414601,-15.394557,687.6 31.414724,-15.394384,687.6 31.414841,-15.394227,687.6 31.415226,-15.393874,687.8 31.415544,-15.393873,687.8 31.415532,-15.394335,687.8 31.415470,-15.394483,687.8 31.414728,-15.395333,695.4 31.414434,-15.395418,695.4 31.414403,-15.395394,695.4 31.414401,-15.395145,695.4 31.414456,-15.395050,695.4 31.414896,-15.394485,687.6 31.415603,-15.393949,687.8 31.416013,-15.393919,688.2 31.416103,-15.394213,688.2 31.416065,-15.394371,688.2 31.415207,-15.395369,689.5 31.414462,-15.395633,699.8 31.414236,-15.395303,694.1 31.414402,-15.394769,695.4 31.414512,-15.394586,687.6 31.415075,-15.393971,687.6 31.415237,-15.393907,687.8 31.415312,-15.394242,687.8 31.414928,-15.394979,695.4 31.414823,-15.395126,695.4 31.414479,-15.395393,695.4 31.414318,-15.395199,694.1 31.414303,-15.394986,694.1 31.414334,-15.394829,694.1 31.414636,-15.394033,687.6 31.414745,-15.393847,687.6 31.414860,-15.393695,698.3 31.415274,-15.393419,699.0 31.415401,-15.393399,699.0 31.415802,-15.393732,699.0 31.415857,-15.393894,687.8 31.415634,-15.394846,689.5 31.414955,-15.395578,699.8 31.414833,-15.395636,699.8 31.414516,-15.395624,699.8 31.414445,-15.395564,699.8 31.414360,-15.395184,695.4 31.414526,-15.394803,695.4 31.414588,-15.394711,695.4 31.415032,-15.394439,687.6 31.415644,-15.394634,687.8 31.415550,-15.395484,692.1 31.415020,-15.396014,699.8 31.414866,-15.396087,699.8 31.414746,-15.396134,699.8 31.414407,-15.396102,699.8 31.414307,-15.395824,701.2 31.414626,-15.395397,695.4 31.415340,-15.395069,689.5 31.415650,-15.395066,689.5 31.416096,-15.395555,700.5 31.416121,-15.395750,700.5 31.415715,-15.396692,696.9 31.415552,-15.396887,696.9 31.414747,-15.397360,704.3 31.414624,-15.397371,704.3 31.414389,-15.397287,704.3 31.414344,-15.396931,703.0 31.414577,-15.396571,703.0 31.415255,-15.396017,692.1 31.415901,-15.395778,692.1 31.416089,-15.395787,700.5 31.416249,-15.395840,700.5 31.416585,-15.396757,707.7 31.416525,-15.397015,707.7 31.416101,-15.398018,714.7 31.415509,-15.398259,702.2 31.415415,-15.398239,702.2 31.415070,-15.397997,711.2 31.415100,-15.397532,704.3 31.415175,-15.397440,701.2 31.415699,-15.397076,696.9 31.415798,-15.397054,696.9 31.416232,-15.397239,714.4 31.416202,-15.398104,714.7 31.415694,-15.398495,702.2 31.415458,-15.398480,702.2 31.415404,-15.398456,702.2 31.415348,-15.398415,702.2 31.415306,-15.398083,702.2 31.415374,-15.397996,702.2 31.416091,-15.397576,714.4 31.416294,-15.397497,714.4 31.417090,-15.397521,723.7 31.417350,-15.398051,722.3 31.417313,-15.398199,722.3 31.416900,-15.398459,722.3 31.416088,-15.398440,714.7 31.414144,-15.397174,713.9 31.414216,-15.396559,708.2 31.414184,-15.396660,708.2 31.413790,-15.397691,713.9 31.413667,-15.398007,728.3 31.413349,-15.398868,732.9 31.413328,-15.398926,732.9 31.413343,-15.398891,732.9 31.413351,-15.398835,732.9 31.413499,-15.398059,731.5 31.413588,-15.397846,713.9 31.413657,-15.397634,713.9 31.413702,-15.397482,713.9 31.413793,-15.397313,713.9 31.413844,-15.397178,713.9 31.413867,-15.397085,708.2 31.413936,-15.396953,708.2 31.413793,-15.397157,713.9 31.413716,-15.397192,713.9 31.413742,-15.397136,708.2 31.413842,-15.396995,708.2 31.413908,-15.396838,708.2 31.414050,-15.396602,708.2 31.414646,-15.395524,699.8 31.414859,-15.395273,695.4 31.415056,-15.395563,699.8 31.414856,-15.396480,703.0 31.414114,-15.397035,708.2 31.413736,-15.397077,708.2 31.413237,-15.396749,705.4 31.413204,-15.396463,705.4 31.414035,-15.395500,701.2 31.416159,-15.394548,688.2 31.416878,-15.394733,692.8 31.416953,-15.394814,692.8 31.416524,-15.395498,700.5 31.415527,-15.396052,692.1 31.415190,-15.396042,692.1 31.415381,-15.395582,692.1 31.415552,-15.395305,689.5 31.417583,-15.393287,694.5 31.418320,-15.392971,701.3 31.418148,-15.393815,686.9 31.417893,-15.394111,690.2 31.417144,-15.394806,692.8 31.417047,-15.394591,686.9 31.417491,-15.393375,694.5 31.418373,-15.392565,701.3 31.418489,-15.392563,701.3 31.418961,-15.393116,683.6 31.417124,-15.394954,692.8 31.415835,-15.395489,692.1 31.415305,-15.395212,689.5 31.415587,-15.394482,687.8 31.417310,-15.392850,704.5 31.418890,-15.392222,699.9 31.419725,-15.392811,693.8 31.417980,-15.394919,696.4 31.417352,-15.395414,692.8 31.415413,-15.396476,696.9 31.414507,-15.396305,699.8 31.414741,-15.395626,699.8 31.416583,-15.393157,698.2 31.417083,-15.392691,704.5 31.418432,-15.392040,704.8 31.418542,-15.392094,707.4 31.418650,-15.392179,699.9 31.418714,-15.392266,699.9 31.418719,-15.392396,699.9 31.418670,-15.392566,699.9 31.418632,-15.392744,699.9 31.417314,-15.394000,686.9 31.416845,-15.394281,686.9 31.416390,-15.394519,688.2 31.416002,-15.394656,689.5 31.415643,-15.394755,689.5 31.415327,-15.394810,689.5 31.415144,-15.394813,695.4 31.415003,-15.394784,695.4 31.414713,-15.394414,687.6 31.415097,-15.393768,698.3 31.415673,-15.393321,699.0 31.417000,-15.392820,704.5 31.417513,-15.392790,704.5 31.417746,-15.392778,701.3 31.417944,-15.392847,701.3 31.418129,-15.392892,701.3 31.418222,-15.393486,686.9 31.418071,-15.393730,686.9 31.417868,-15.393941,690.2 31.416046,-15.395133,693.6 31.415613,-15.395296,689.5 31.415343,-15.395384,689.5 31.415108,-15.395431,695.4 31.414556,-15.395196,695.4 31.414558,-15.395097,695.4 31.415477,-15.393622,699.0 31.415900,-15.393148,699.0 31.419462,-15.390967,702.3 31.420040,-15.390781,702.3 31.422064,-15.390860,684.3 31.422130,-15.391092,684.3 31.421732,-15.392226,684.3 31.418213,-15.394806,696.4 31.417693,-15.395034,696.4 31.415813,-15.395410,689.5 31.415098,-15.394890,695.4 31.415263,-15.394105,687.8 31.416138,-15.393469,698.2 31.417154,-15.393550,694.5 31.417397,-15.393651,694.5 31.418200,-15.394405,690.2 31.417984,-15.395376,696.4 31.417730,-15.395613,701.7 31.415795,-15.396771,696.9 31.413943,-15.397025,708.2 31.413269,-15.395904,699.0 31.414848,-15.393706,698.3 31.415329,-15.393329,699.0 31.418322,-15.392123,704.8 31.419706,-15.392630,693.8 31.418478,-15.394384,690.2 31.416079,-15.395925,700.5 31.414474,-15.396010,699.8 31.414329,-15.395888,701.2 31.414385,-15.394871,695.4 31.415935,-15.393221,699.0 31.418232,-15.392784,701.3 31.419403,-15.393562,685.8 31.418185,-15.395120,696.4 31.415907,-15.396067,692.1 31.414979,-15.395662,699.8 31.415560,-15.394566,687.8 31.415918,-15.394122,687.8 31.417987,-15.392607,701.3 31.419099,-15.392646,699.9 31.419606,-15.393694,685.8 31.417793,-15.395531,701.7 31.416339,-15.396143,700.5 31.415546,-15.395579,692.1 31.416475,-15.394577,688.2 31.416851,-15.394294,686.9 31.419148,-15.393435,683.6 31.419662,-15.393812,685.8 31.418880,-15.394837,696.3 31.417218,-15.395777,698.3 31.416403,-15.395672,700.5 31.416556,-15.394761,693.6 31.417784,-15.393681,686.9 31.419338,-15.393725,683.6 31.419398,-15.394746,697.3 31.417055,-15.396826,708.6 31.414573,-15.397673,704.3 31.413341,-15.396739,705.4 31.413946,-15.395871,701.2 31.414242,-15.395706,701.2 31.417179,-15.395365,692.8 31.417689,-15.395718,701.7 31.417186,-15.396025,698.3 31.415388,-15.396836,696.9 31.414719,-15.396734,703.0 31.416074,-15.395256,693.6 31.416688,-15.394835,693.6 31.421364,-15.392963,684.3 31.421974,-15.393383,694.6 31.421856,-15.393538,694.6 31.418443,-15.395840,701.7 31.417695,-15.396212,701.7 31.415742,-15.396937,696.9 31.415123,-15.396297,699.8 31.415365,-15.395602,692.1 31.416259,-15.394994,693.6 31.417901,-15.394819,696.4 31.418296,-15.394874,696.4 31.419101,-15.395514,699.2 31.418571,-15.396034,699.2 31.416488,-15.396930,707.7 31.415021,-15.397205,704.3 31.414277,-15.396591,708.2 31.415373,-15.394938,689.5 31.418687,-15.393176,683.6 31.420453,-15.393541,690.1 31.420340,-15.394397,693.8 31.418514,-15.395458,696.3 31.415871,-15.396262,692.1 31.414986,-15.396248,699.8 31.414912,-15.396192,699.8 31.415383,-15.395369,689.5 31.416972,-15.394184,686.9 31.417445,-15.393963,686.9 31.417885,-15.394293,690.2 31.417939,-15.394774,696.4 31.417724,-15.394945,696.4 31.416935,-15.395236,692.8 31.416816,-15.395277,693.6 31.417074,-15.395049,692.8 31.417852,-15.394612,690.2 31.419553,-15.393939,691.9 31.421194,-15.393325,691.1 31.421441,-15.393271,691.1 31.420955,-15.393596,690.1 31.418744,-15.394965,696.3 31.417499,-15.395550,698.3 31.416804,-15.395643,700.5 31.416742,-15.395559,700.5 31.417436,-15.395169,692.8 31.419101,-15.394462,691.2 31.420032,-15.394240,691.9 31.420096,-15.394340,691.9 31.419804,-15.394611,691.9 31.419038,-15.394982,696.3 31.417358,-15.395702,698.3 31.417017,-15.395766,698.3 31.417013,-15.395693,698.3 31.417396,-15.395538,698.3 31.417603,-15.395516,698.3 31.419576,-15.395370,697.3 31.419598,-15.395494,697.8 31.419531,-15.396612,703.6 31.419340,-15.397171,706.5 31.419338,-15.397127,703.6 31.419437,-15.396985,703.6 31.419537,-15.396811,703.6 31.419625,-15.396605,703.6 31.420065,-15.395354,697.3 31.420239,-15.394964,702.9 31.420261,-15.394923,702.9 31.419522,-15.396065,697.8 31.418993,-15.396621,710.3 31.417604,-15.398298,722.3 31.417524,-15.398397,722.3 31.417452,-15.398508,722.3 31.417525,-15.398301,722.3 31.417993,-15.397718,724.0 31.418191,-15.397492,724.0 31.418379,-15.397307,724.0 31.418689,-15.397093,710.3 31.419942,-15.396465,703.6 31.420352,-15.396363,702.8 31.420389,-15.396435,702.8 31.419466,-15.396720,703.6 31.418299,-15.396868,712.0 31.418138,-15.396866,712.0 31.417953,-15.396740,712.0 31.419449,-15.395878,697.8 31.420788,-15.395308,702.9 31.420835,-15.395294,702.9 31.419829,-15.396013,697.8 31.418193,-15.396765,712.0 31.418034,-15.396806,712.0 31.418206,-15.396616,712.0 31.418754,-15.396228,699.2 31.420431,-15.395898,703.9 31.420818,-15.395605,703.9 31.420598,-15.395751,703.9 31.420451,-15.395876,703.9 31.419159,-15.396777,710.3 31.418591,-15.397058,710.3 31.419409,-15.396564,703.6 31.419610,-15.396405,703.6 31.420213,-15.396008,703.9 31.419198,-15.396677,710.3 31.418808,-15.396845,710.3 31.415924,-15.397561,701.2 31.416704,-15.397033,707.7 31.417238,-15.396949,708.6 31.417283,-15.396996,708.6 31.417164,-15.397467,723.7 31.416640,-15.397939,714.4 31.416218,-15.397959,714.4 31.416156,-15.397673,714.4 31.416577,-15.397189,714.4 31.417141,-15.396939,708.6 31.417590,-15.396922,708.6 31.417427,-15.397374,723.7 31.416822,-15.397927,714.4 31.416620,-15.398014,714.7 31.416439,-15.397871,714.4 31.416431,-15.397803,714.4 31.416656,-15.397203,714.4 31.417281,-15.396738,708.6 31.417513,-15.396781,708.6 31.417404,-15.397232,723.7 31.417334,-15.398097,722.3 31.417040,-15.398532,722.3 31.416952,-15.398552,722.3 31.416175,-15.398622,714.7 31.416037,-15.398615,714.7 31.415552,-15.398659,702.2 31.415451,-15.398667,702.2 31.415238,-15.398728,702.2 31.415431,-15.398721,702.2 31.415529,-15.398702,702.2 31.415740,-15.398711,702.2 31.416206,-15.398732,714.7 31.416310,-15.398723,714.7 31.416551,-15.398708,714.7 31.416254,-15.398683,714.7 31.415772,-15.398629,702.2 31.415672,-15.398585,702.2 31.416446,-15.398614,714.7 31.416833,-15.398619,714.7 31.416459,-15.398505,714.7 31.415895,-15.398348,702.2 31.415800,-15.398330,702.2 31.415707,-15.398299,702.2 31.415984,-15.398342,702.2 31.416094,-15.398345,714.7 31.416220,-15.398353,714.7 31.415421,-15.398007,702.2 31.415175,-15.397945,701.2 31.414450,-15.397787,704.3 31.414399,-15.397775,704.3 31.414761,-15.397777,704.3 31.415466,-15.397894,701.2 31.415504,-15.397923,701.2 31.415340,-15.397859,701.2 31.414758,-15.397641,704.3 31.414637,-15.397621,704.3 31.414703,-15.397692,704.3 31.415467,-15.398212,702.2 31.415515,-15.398278,702.2 31.415598,-15.398348,702.2 31.415536,-15.398298,702.2 31.414470,-15.397986,711.2 31.414298,-15.397964,713.9 31.414779,-15.398201,711.2 31.414943,-15.398302,711.2 31.415601,-15.398712,702.2 31.414398,-15.398297,711.2 31.413856,-15.398121,728.3 31.414826,-15.398349,711.2 31.415295,-15.398484,702.2 31.415387,-15.398481,702.2 31.415448,-15.398506,702.2 31.414774,-15.398323,711.2 31.413812,-15.398074,728.3 31.413739,-15.398046,728.3 31.414065,-15.398188,728.3 31.414573,-15.398371,711.2 31.413201,-15.397624,720.0 31.413198,-15.397522,720.0 31.413196,-15.397454,720.0 31.413180,-15.397366,720.0 31.413108,-15.396817,705.4 31.413140,-15.396721,705.4 31.414191,-15.396924,708.2 31.414392,-15.396975,703.0 31.414903,-15.397391,704.3 31.414163,-15.397582,713.9 31.414139,-15.397540,713.9 31.414360,-15.397409,704.3 31.415702,-15.397097,696.9 31.415825,-15.397103,696.9 31.416344,-15.397473,714.4 31.416065,-15.398012,714.7 31.414528,-15.398450,711.2 31.413700,-15.398157,728.3 31.414051,-15.397960,713.9 31.416186,-15.397955,714.4 31.416646,-15.398302,714.7 31.416016,-15.398606,714.7 31.414813,-15.398580,711.2 31.415244,-15.398394,702.2 31.415480,-15.398348,702.2 31.416940,-15.398461,722.3 31.416822,-15.398582,714.7 31.416356,-15.398725,714.7 31.416140,-15.398785,714.7 31.415913,-15.398829,710.2 31.414576,-15.398820,709.1 31.414592,-15.398770,711.2 31.416103,-15.398742,714.7 31.416452,-15.398922,711.5 31.416362,-15.398928,711.5 31.416345,-15.398919,711.5 31.415790,-15.399188,710.2 31.415656,-15.399186,710.2 31.414415,-15.399137,709.1 31.414163,-15.399122,722.5 31.413611,-15.399081,722.5 31.413884,-15.399047,722.5 31.415292,-15.398966,710.2 31.415887,-15.398935,710.2 31.415733,-15.398950,710.2 31.415063,-15.398915,709.1 31.413934,-15.398835,722.5 31.413848,-15.398828,722.5 31.414562,-15.398798,711.2 31.417010,-15.398633,722.3 31.417205,-15.398644,722.3 31.417057,-15.398677,722.3 31.416930,-15.398678,722.3 31.416098,-15.398718,714.7 31.415953,-15.398708,702.2 31.416407,-15.398688,714.7 31.416601,-15.398671,714.7 31.417222,-15.398694,722.3 31.417117,-15.398717,722.3 31.415651,-15.398703,702.2 31.414875,-15.398641,711.2 31.415166,-15.398580,711.2 31.415427,-15.398560,702.2 31.417615,-15.398324,722.3 31.417794,-15.398316,719.8 31.417946,-15.398312,719.8 31.417168,-15.398435,722.3 31.415555,-15.398534,702.2 31.414950,-15.398532,711.2 31.415140,-15.398499,711.2 31.415369,-15.398496,702.2 31.416643,-15.398449,714.7 31.416865,-15.398465,722.3 31.415719,-15.398563,702.2 31.414643,-15.398620,711.2 31.413241,-15.398656,731.5 31.413735,-15.398562,728.3 31.417277,-15.397894,723.7 31.417480,-15.397845,723.7 31.417937,-15.397758,724.0 31.417492,-15.397801,723.7 31.415601,-15.398131,702.2 31.415191,-15.398155,702.2 31.416622,-15.397936,714.4 31.418135,-15.397799,724.0 31.417907,-15.397820,724.0 31.415636,-15.398212,702.2 31.413676,-15.398453,728.3 31.414875,-15.398364,711.2 31.416118,-15.398326,714.7 31.416385,-15.398338,714.7 31.416577,-15.398332,714.7 31.416922,-15.398344,722.3 31.416694,-15.398304,714.7 31.415408,-15.398326,702.2 31.415114,-15.398344,711.2 31.417364,-15.397940,723.7 31.418759,-15.397744,719.8 31.418595,-15.397748,719.8 31.417723,-15.397833,724.0 31.417485,-15.397871,723.7 31.416668,-15.397950,714.4 31.417454,-15.397796,723.7 31.418420,-15.397683,724.0 31.417870,-15.397732,724.0 31.416766,-15.397778,714.4 31.416679,-15.397774,714.4 31.417271,-15.397651,723.7 31.418979,-15.397334,719.8 31.417616,-15.397484,723.7 31.416879,-15.397546,723.7 31.417404,-15.397466,723.7 31.417584,-15.397422,723.7 31.417388,-15.397470,723.7 31.417242,-15.397480,723.7 31.416655,-15.397564,714.4 31.417279,-15.397498,723.7 31.417408,-15.397493,723.7 31.417760,-15.397478,724.0 31.417327,-15.397596,723.7 31.417023,-15.397700,723.7 31.416995,-15.397721,723.7 31.417381,-15.397637,723.7 31.418623,-15.397324,719.8 31.418750,-15.397296,719.8 31.418292,-15.397398,724.0 31.417803,-15.397482,724.0 31.418588,-15.397102,710.3 31.419120,-15.396876,710.3 31.418573,-15.396961,710.3 31.418451,-15.396976,712.0 31.417887,-15.397014,712.0 31.418297,-15.396883,712.0 31.419784,-15.396424,703.6 31.419694,-15.396431,703.6 31.418382,-15.396746,712.0 31.418214,-15.396788,712.0 31.418881,-15.396559,710.3 31.419466,-15.396364,703.6 31.418661,-15.396541,710.3 31.418299,-15.396620,712.0 31.418663,-15.396495,710.3 31.420779,-15.395667,703.9 31.419822,-15.395935,697.8 31.418362,-15.396321,712.0 31.418804,-15.396214,699.2 31.418989,-15.396163,699.2 31.419430,-15.396042,697.8 31.419180,-15.396111,699.2 31.418989,-15.396163,699.2 31.418033,-15.396486,712.0 31.418718,-15.396405,710.3 31.418974,-15.396367,710.3 31.418766,-15.396423,710.3 31.418643,-15.396440,710.3 31.418167,-15.396464,712.0 31.418882,-15.396193,699.2 31.420490,-15.395564,703.9 31.419034,-15.395837,699.2 31.418141,-15.395899,701.7 31.417697,-15.395867,701.7 31.417846,-15.395791,701.7 31.420261,-15.395194,702.9 31.421373,-15.395170,705.0 31.419798,-15.395401,697.3 31.419241,-15.395407,696.3 31.419091,-15.395373,696.3 31.419777,-15.395042,697.3 31.420863,-15.394664,702.9 31.420986,-15.394642,693.8 31.421133,-15.394631,699.5 31.420178,-15.394898,702.9 31.419191,-15.395047,696.3 31.419638,-15.394902,697.3 31.420390,-15.394934,702.9 31.419972,-15.395064,697.3 31.419500,-15.395146,697.3 31.419348,-15.395145,697.3 31.419495,-15.395065,697.3 31.420426,-15.394768,702.9 31.420840,-15.394741,702.9 31.420644,-15.394872,702.9 31.418486,-15.395355,696.4 31.418369,-15.395345,696.4 31.418090,-15.395089,696.4 31.418750,-15.394733,696.3 31.420365,-15.394389,693.8 31.421069,-15.394297,699.5 31.422409,-15.394721,714.6 31.422361,-15.394825,714.6 31.420593,-15.395853,703.9 31.419111,-15.395973,699.2 31.418998,-15.395927,699.2 31.418863,-15.395571,699.2 31.418923,-15.395409,696.3 31.419696,-15.394270,691.9 31.420496,-15.394098,693.8 31.421069,-15.395018,705.0 31.421023,-15.395119,705.0 31.420092,-15.395613,697.8 31.418943,-15.395354,696.3 31.419151,-15.394829,696.3 31.420885,-15.394268,693.8 31.421603,-15.394394,699.5 31.420392,-15.394950,702.9 31.420162,-15.395005,697.3 31.419566,-15.394976,697.3 31.419963,-15.394037,691.9 31.421114,-15.393001,691.1 31.422305,-15.393267,694.6 31.422292,-15.393425,694.6 31.420793,-15.394825,702.9 31.419002,-15.395157,696.3 31.418791,-15.394636,691.2 31.419840,-15.393642,685.8 31.420660,-15.393484,690.1 31.420483,-15.393960,693.8 31.420281,-15.394049,693.8 31.418905,-15.394313,691.2 31.418600,-15.394156,691.2 31.418897,-15.394045,691.2 31.419115,-15.394100,691.2 31.418970,-15.394205,691.2 31.418812,-15.394195,691.2 31.419188,-15.393867,691.2 31.420465,-15.393247,690.1 31.420533,-15.393349,690.1 31.420433,-15.393404,690.1 31.419981,-15.393554,685.8 31.419519,-15.393482,685.8 31.419621,-15.393180,685.8 31.419928,-15.393060,685.8 31.421054,-15.393432,691.1 31.420811,-15.394346,693.8 31.419144,-15.395079,696.3 31.418649,-15.394980,696.3 31.418563,-15.394830,696.3 31.419748,-15.394304,691.9 31.419873,-15.394261,691.9 31.420226,-15.394296,693.8 31.418761,-15.395539,699.2 31.417200,-15.395887,698.3 31.416868,-15.395681,698.3 31.417221,-15.394746,692.8 31.418062,-15.394030,690.2 31.419660,-15.394058,691.9 31.420222,-15.395054,702.9 31.417987,-15.396847,712.0 31.417359,-15.397120,708.6 31.415716,-15.397611,701.2 31.415688,-15.397114,696.9 31.416532,-15.396370,707.7 31.417198,-15.396401,708.6 31.417274,-15.397389,723.7 31.416804,-15.397889,714.4 31.416593,-15.398010,714.7 31.415588,-15.398147,702.2 31.415301,-15.397624,701.2 31.415399,-15.397445,701.2 31.416130,-15.396463,707.7 31.416910,-15.396754,708.6 31.417152,-15.398628,722.3 31.416096,-15.399552,711.5 31.414259,-15.399329,722.5 31.413999,-15.399166,722.5 31.413730,-15.397776,713.9 31.415612,-15.395996,692.1 31.417026,-15.396278,698.3 31.416746,-15.397904,714.4 31.415284,-15.398449,702.2 31.414952,-15.398398,711.2 31.414193,-15.396217,701.2 31.415836,-15.393685,699.0 31.416040,-15.393613,698.2 31.417402,-15.395088,692.8 31.417352,-15.395429,692.8 31.415984,-15.397114,696.9 31.415763,-15.397161,701.2 31.414302,-15.396621,708.2 31.414686,-15.395453,695.4 31.414813,-15.395334,695.4 31.416585,-15.395192,693.6 31.417324,-15.396537,708.6 31.416301,-15.397377,714.4 31.415294,-15.397235,701.2 31.415181,-15.397161,701.2 31.415315,-15.396192,692.1 31.416532,-15.395436,693.6 31.417311,-15.395443,692.8 31.417458,-15.395548,698.3 31.417703,-15.396634,712.0 31.417604,-15.396846,708.6 31.415862,-15.398136,702.2 31.415361,-15.398247,702.2 31.413009,-15.398153,731.5 31.413181,-15.396987,705.4 31.413413,-15.396578,705.4 31.415610,-15.394487,687.8 31.417889,-15.394727,696.4 31.417274,-15.397976,723.7 31.415305,-15.399667,715.6 31.413829,-15.398865,722.5 31.413733,-15.398552,728.3 31.414664,-15.395968,699.8 31.416372,-15.394861,693.6 31.417815,-15.397549,724.0 31.417266,-15.399263,716.1 31.416564,-15.399337,711.5 31.416361,-15.399271,711.5 31.414960,-15.397829,704.3 31.415924,-15.396581,696.9 31.416138,-15.396503,707.7 31.417094,-15.396941,708.6 31.417109,-15.397117,708.6 31.416508,-15.398361,714.7 31.415296,-15.398632,702.2 31.415160,-15.397232,704.3 31.416265,-15.395864,700.5 31.417396,-15.396632,708.6 31.417149,-15.398426,722.3 31.415732,-15.398611,702.2 31.415229,-15.397409,701.2 31.416722,-15.395993,700.5 31.418119,-15.396521,712.0 31.417176,-15.397851,723.7 31.415220,-15.398024,702.2 31.414559,-15.396537,703.0 31.416463,-15.394445,688.2 31.418291,-15.395212,696.4 31.416958,-15.398309,722.3 31.416558,-15.398628,714.7 31.413732,-15.399027,722.5 31.412855,-15.398085,731.5 31.413435,-15.397086,705.4 31.415380,-15.396812,696.9 31.416270,-15.398249,714.7 31.415286,-15.399258,710.2 31.413809,-15.398335,728.3 31.414759,-15.396056,699.8 31.415596,-15.395760,692.1 31.415865,-15.395882,692.1 31.416725,-15.397708,714.4 31.416704,-15.397834,714.4 31.415448,-15.398051,702.2 31.413442,-15.396467,705.4 31.413980,-15.394844,694.1 31.415854,-15.394372,687.8 31.416583,-15.395774,700.5 31.415470,-15.396987,696.9 31.414759,-15.397097,703.0 31.414845,-15.396969,703.0 31.416056,-15.397377,714.4 31.417234,-15.399716,720.6 31.415580,-15.400676,715.7 31.412891,-15.399963,733.9 31.412934,-15.399210,732.9 31.414703,-15.398646,711.2 31.414969,-15.398662,711.2 31.416505,-15.400066,717.2 31.416411,-15.400845,724.1 31.415227,-15.400199,715.6 31.414812,-15.398508,711.2 31.414871,-15.398353,711.2 31.415464,-15.398200,702.2 31.416218,-15.400082,717.2 31.415694,-15.401221,715.7 31.415011,-15.401042,709.1 31.414990,-15.400956,709.1 31.415274,-15.400240,715.6 31.416312,-15.400069,717.2 31.416800,-15.400589,724.1 31.415589,-15.401132,715.7 31.415006,-15.400721,709.1 31.416082,-15.399675,717.2 31.416878,-15.399473,716.1 31.416517,-15.399788,717.2 31.415927,-15.399950,715.6 31.416074,-15.399616,711.5 31.416300,-15.399507,711.5 31.416452,-15.400267,717.2 31.415996,-15.400555,715.7 31.416082,-15.399675,717.2 31.416143,-15.399545,711.5 31.416371,-15.399358,711.5 31.415952,-15.400111,715.6 31.415830,-15.400203,715.6 31.415475,-15.400259,715.6 31.415727,-15.399357,710.2 31.415887,-15.399171,710.2 31.415991,-15.399881,715.6 31.415289,-15.400238,715.6 31.415265,-15.399863,715.6 31.415519,-15.399611,710.2 31.415583,-15.399972,715.6 31.414841,-15.400882,709.1 31.414608,-15.400767,709.1 31.414979,-15.399947,706.2 31.415192,-15.399896,715.6 31.415304,-15.399988,715.6 31.415524,-15.400557,715.7 31.414607,-15.400438,706.2 31.413615,-15.399764,719.8 31.413753,-15.399403,722.5 31.414870,-15.399470,709.1 31.415275,-15.399897,715.6 31.415150,-15.399866,706.2 31.415055,-15.399266,709.1 31.415219,-15.399111,710.2 31.415314,-15.400375,715.6 31.414260,-15.400651,713.9 31.413690,-15.399909,719.8 31.414570,-15.399505,709.1 31.414748,-15.399522,709.1 31.415233,-15.399760,715.6 31.414843,-15.399749,706.2 31.414144,-15.398917,722.5 31.414179,-15.398612,728.3 31.414422,-15.398807,711.2 31.414380,-15.399721,706.2 31.414116,-15.399788,719.8 31.414073,-15.399746,719.8 31.414031,-15.399331,722.5 31.414502,-15.399464,709.1 31.414916,-15.400001,706.2 31.414365,-15.399941,706.2 31.413476,-15.399287,732.9 31.413765,-15.399022,722.5 31.414249,-15.399227,722.5 31.414262,-15.399374,722.5 31.413390,-15.399301,732.9 31.413245,-15.398676,731.5 31.413333,-15.398569,731.5 31.414529,-15.398033,711.2 31.415414,-15.398650,702.2 31.415147,-15.399458,709.1 31.414604,-15.399418,709.1 31.414545,-15.399179,709.1 31.415066,-15.399360,709.1 31.415546,-15.400319,715.6 31.414674,-15.400433,706.2 31.413628,-15.399634,722.5 31.414546,-15.398693,711.2 31.415451,-15.398593,702.2 31.415585,-15.398915,710.2 31.414516,-15.398877,709.1 31.413956,-15.398189,728.3 31.414486,-15.398126,711.2 31.415483,-15.399045,710.2 31.415224,-15.399678,715.6 31.415092,-15.399538,709.1 31.415123,-15.399448,709.1 31.415416,-15.398921,710.2 31.415623,-15.399057,710.2 31.415662,-15.399770,715.6 31.415390,-15.399941,715.6 31.415287,-15.399137,710.2 31.415655,-15.398589,702.2 31.416014,-15.399049,711.5 31.415908,-15.399705,715.6 31.415439,-15.399502,710.2 31.415575,-15.398680,702.2 31.415928,-15.398547,702.2 31.416275,-15.399312,711.5 31.415949,-15.399900,715.6 31.415597,-15.399489,710.2 31.415785,-15.398613,702.2 31.416295,-15.398891,711.5 31.416383,-15.399880,717.2 31.415992,-15.399998,715.6 31.415927,-15.399950,715.6 31.415613,-15.399218,710.2 31.416107,-15.398484,714.7 31.416390,-15.398833,711.5 31.416195,-15.400770,724.1 31.415422,-15.401277,715.7 31.415075,-15.401179,709.1 31.414717,-15.400118,706.2 31.415878,-15.398974,710.2 31.417249,-15.399539,716.1 31.417347,-15.399787,720.6 31.416803,-15.401406,720.6 31.414051,-15.401587,715.8 31.412660,-15.400279,732.9 31.413705,-15.398700,728.3 31.416094,-15.398345,714.7 31.416646,-15.399219,711.5 31.415597,-15.399489,710.2 31.413491,-15.398217,731.5 31.414960,-15.396711,703.0 31.416527,-15.397179,714.4 31.416590,-15.397433,714.4 31.416161,-15.398818,711.5 31.415961,-15.398883,710.2 31.414464,-15.398414,711.2 31.414741,-15.397319,704.3 31.415740,-15.397736,701.2 31.415714,-15.399225,710.2 31.415589,-15.399259,710.2 31.413976,-15.398479,728.3 31.415123,-15.396608,703.0 31.415565,-15.396470,696.9 31.415577,-15.396753,696.9 31.415534,-15.396875,696.9 31.413715,-15.397791,713.9 31.413567,-15.397772,713.9 31.413318,-15.396385,705.4 31.413697,-15.395512,701.2 31.413644,-15.395465,694.1 31.413266,-15.395511,699.0 31.413172,-15.395641,699.0 31.413127,-15.395711,699.0 31.413064,-15.395840,699.0 31.413535,-15.395075,694.1 31.413727,-15.394717,694.1 31.414282,-15.393350,694.9 31.414438,-15.392909,698.4 31.414849,-15.391843,693.6 31.414789,-15.391925,693.6 31.414749,-15.392010,693.6 31.414332,-15.392989,694.9 31.414205,-15.393261,694.9 31.412914,-15.396026,699.0 31.412600,-15.396530,702.6 31.413596,-15.395159,694.1 31.414600,-15.393717,698.3 31.414452,-15.394095,687.6 31.413569,-15.395669,701.2 31.413299,-15.396021,699.0 31.413380,-15.395887,699.0 31.414395,-15.393713,698.3 31.414520,-15.393380,698.3 31.414445,-15.393608,698.3 31.414376,-15.393776,698.3 31.413464,-15.395763,699.0 31.413115,-15.396507,705.4 31.413241,-15.396222,699.0 31.413822,-15.394940,694.1 31.413980,-15.394465,687.3 31.414563,-15.392619,698.4 31.414596,-15.392531,698.4 31.414555,-15.392723,698.4 31.414234,-15.393966,687.3 31.413579,-15.395329,694.1 31.413458,-15.395526,699.0 31.413823,-15.394855,694.1 31.414081,-15.394165,687.3 31.414208,-15.393797,694.9 31.414597,-15.392573,698.4 31.414378,-15.393445,698.3 31.413378,-15.395585,699.0 31.413061,-15.396008,699.0 31.413108,-15.395861,699.0 31.413827,-15.394296,687.3 31.414482,-15.392931,698.4 31.413992,-15.394333,687.3 31.413580,-15.395152,694.1 31.413705,-15.394989,694.1 31.413767,-15.394893,694.1 31.414654,-15.392833,698.4 31.414919,-15.392184,698.4 31.414604,-15.392800,698.4 31.413391,-15.395379,690.8 31.412949,-15.396089,699.0 31.412881,-15.396179,699.0 31.413174,-15.395653,699.0 31.413906,-15.394218,687.3 31.414600,-15.392375,698.4 31.414517,-15.392599,698.4 31.414491,-15.392955,698.4 31.414232,-15.394664,694.1 31.414239,-15.394705,694.1 31.414570,-15.393998,687.6 31.414803,-15.393195,698.3 31.414733,-15.393463,698.3 31.414698,-15.393659,698.3 31.413747,-15.395653,701.2 31.413662,-15.395792,701.2 31.413578,-15.395929,701.2 31.413928,-15.395296,694.1 31.415149,-15.392667,698.4 31.415505,-15.392010,697.2 31.414782,-15.393650,698.3 31.413694,-15.395700,701.2 31.413605,-15.395814,701.2 31.413900,-15.395321,694.1 31.415558,-15.392650,703.6 31.415826,-15.392313,703.6 31.415643,-15.392670,703.6 31.415052,-15.394226,687.6 31.414923,-15.394512,687.6 31.414921,-15.394456,687.6 31.415346,-15.393293,699.0 31.415967,-15.392191,703.6 31.416286,-15.391720,699.7 31.416138,-15.391953,699.7 31.415567,-15.392765,703.6 31.415412,-15.393074,699.0 31.414853,-15.393988,687.6 31.415276,-15.393151,699.0 31.415975,-15.392105,697.2 31.415675,-15.392487,703.6 31.414237,-15.394036,687.3 31.414182,-15.394090,687.3 31.416186,-15.392854,706.1 31.418864,-15.391368,707.4 31.418957,-15.391324,707.4 31.417998,-15.391567,704.8 31.417649,-15.391658,699.1 31.416119,-15.392112,699.7 31.416490,-15.392001,699.7 31.417978,-15.391613,704.8 31.418154,-15.391558,704.8 31.417185,-15.391776,699.1 31.416371,-15.391929,699.7 31.416164,-15.391989,699.7 31.415806,-15.392046,697.2 31.416867,-15.392061,699.1 31.418303,-15.391860,704.8 31.416565,-15.392062,699.7 31.416209,-15.392148,699.7 31.417007,-15.392108,699.1 31.417231,-15.392046,699.1 31.417448,-15.391986,699.1 31.417906,-15.391860,704.8 31.417187,-15.392068,699.1 31.415989,-15.392343,703.6 31.416291,-15.392270,706.1 31.417442,-15.391955,699.1 31.416329,-15.392234,706.1 31.416181,-15.392245,706.1 31.416307,-15.392229,706.1 31.416393,-15.392234,706.1 31.417899,-15.391811,704.8 31.417736,-15.391910,704.8 31.416270,-15.392445,706.1 31.416172,-15.392478,706.1 31.416076,-15.392526,706.1 31.417117,-15.392256,704.5 31.417718,-15.392091,704.8 31.416538,-15.392444,706.1 31.415531,-15.392633,703.6 31.416395,-15.392562,706.1 31.417602,-15.392284,704.5 31.417803,-15.392237,701.3 31.417599,-15.392268,704.5 31.417404,-15.392296,704.5 31.416013,-15.392571,706.1 31.417648,-15.392125,699.1 31.418228,-15.391978,704.8 31.418004,-15.392053,704.8 31.417775,-15.392132,704.8 31.416293,-15.392563,706.1 31.416260,-15.392578,706.1 31.418173,-15.392289,701.3 31.418356,-15.392294,701.3 31.418252,-15.392322,701.3 31.416050,-15.392735,706.1 31.415836,-15.392759,703.6 31.416880,-15.392646,704.5 31.417405,-15.392577,704.5 31.417300,-15.392609,704.5 31.417123,-15.392642,704.5 31.415636,-15.392837,703.6 31.417061,-15.392625,704.5 31.417273,-15.392606,704.5 31.417496,-15.392551,704.5 31.415859,-15.392809,703.6 31.415690,-15.392827,703.6 31.415728,-15.392825,703.6 31.417309,-15.392621,704.5 31.416992,-15.392702,704.5 31.415673,-15.392879,703.6 31.415877,-15.392845,703.6 31.417527,-15.392583,704.5 31.417654,-15.392556,704.5 31.416717,-15.392339,706.1 31.416645,-15.392241,706.1 31.416946,-15.392190,704.5 31.416201,-15.392382,706.1 31.416073,-15.392365,706.1 31.416714,-15.392307,706.1 31.416595,-15.392383,706.1 31.416495,-15.392432,706.1 31.416095,-15.392517,706.1 31.416211,-15.392459,706.1 31.416678,-15.392375,706.1 31.416463,-15.392530,706.1 31.416226,-15.392593,706.1 31.416500,-15.392479,706.1 31.416787,-15.392405,706.1 31.416423,-15.392534,706.1 31.415620,-15.392844,703.6 31.415535,-15.392869,703.6 31.415350,-15.392925,703.6 31.416340,-15.392663,706.1 31.416585,-15.392613,706.1 31.417133,-15.392464,704.5 31.415877,-15.392890,703.6 31.414749,-15.393233,698.3 31.414959,-15.393093,698.3 31.415236,-15.392920,703.6 31.419212,-15.391184,702.6 31.419732,-15.391130,702.3 31.419142,-15.391488,707.4 31.418864,-15.391619,707.4 31.416685,-15.392455,706.1 31.416714,-15.392307,706.1 31.418848,-15.391141,702.6 31.420406,-15.390587,697.0 31.419943,-15.390869,702.3 31.418552,-15.391480,707.4 31.418035,-15.391654,704.8 31.416506,-15.391959,699.7 31.417024,-15.391790,699.1 31.417207,-15.391764,699.1 31.417612,-15.391765,699.1 31.416185,-15.392127,699.7 31.415753,-15.392090,697.2 31.417315,-15.391655,699.1 31.417670,-15.391612,699.1 31.418219,-15.391581,704.8 31.416556,-15.392000,699.7 31.416952,-15.391742,699.1 31.418126,-15.391321,704.8 31.418721,-15.391220,702.6 31.420028,-15.390920,702.3 31.417165,-15.391541,699.1 31.417007,-15.391555,699.1 31.416827,-15.391457,699.7 31.418848,-15.391085,702.6 31.418997,-15.391067,702.6 31.418571,-15.391236,702.6 31.417341,-15.391394,699.1 31.418195,-15.391031,698.9 31.419400,-15.390712,702.3 31.418407,-15.390795,698.9 31.417758,-15.390805,698.9 31.417659,-15.390805,694.0 31.417536,-15.390800,694.0 31.419122,-15.390545,702.6 31.418900,-15.390583,702.6 31.417197,-15.390932,694.0 31.417442,-15.390834,694.0 31.419170,-15.390714,702.6 31.418563,-15.390885,702.6 31.418303,-15.390959,698.9 31.417353,-15.391209,694.0 31.417998,-15.391006,698.9 31.419483,-15.390804,702.3 31.418520,-15.390963,702.6 31.418076,-15.391056,698.9 31.416728,-15.391245,692.4 31.416859,-15.391190,694.0 31.419047,-15.390642,702.6 31.418900,-15.390622,702.6 31.415980,-15.391275,691.4 31.415644,-15.391359,697.2 31.417477,-15.390979,694.0 31.417967,-15.390931,698.9 31.416898,-15.391115,694.0 31.416714,-15.391112,692.4 31.418130,-15.390712,698.9 31.417860,-15.390823,698.9 31.417568,-15.390893,694.0 31.415656,-15.391320,697.2 31.416155,-15.391122,692.4 31.417027,-15.390829,694.0 31.417208,-15.390781,694.0 31.417304,-15.390837,694.0 31.417147,-15.390870,694.0 31.414941,-15.391619,693.6 31.414831,-15.391668,693.6 31.414953,-15.391597,693.6 31.416830,-15.391099,692.4 31.416423,-15.391244,692.4 31.415481,-15.391585,697.2 31.416522,-15.391293,692.4 31.416971,-15.391218,694.0 31.415980,-15.391669,697.2 31.415844,-15.391727,697.2 31.415594,-15.391814,697.2 31.416252,-15.391585,699.7 31.415055,-15.392093,693.6 31.414236,-15.392468,696.2 31.414185,-15.392481,696.2 31.414220,-15.392477,696.2 31.414287,-15.392455,696.2 31.415501,-15.391980,697.2 31.413913,-15.393169,694.9 31.413282,-15.393815,695.0 31.414231,-15.392841,696.2 31.414227,-15.392872,696.2 31.413562,-15.393323,694.9 31.413501,-15.393274,695.0 31.413552,-15.393193,694.9 31.413911,-15.392783,696.2 31.413617,-15.393901,687.3 31.413398,-15.394240,690.3 31.413032,-15.394797,690.8 31.413846,-15.393299,694.9 31.413972,-15.393096,694.9 31.414239,-15.392781,696.2 31.413603,-15.393667,694.9 31.413460,-15.393779,695.0 31.413269,-15.393861,690.3 31.413825,-15.392691,696.2 31.413874,-15.392637,696.2 31.413866,-15.392959,696.2 31.412829,-15.394759,690.8 31.413037,-15.394214,690.3 31.413170,-15.393951,690.3 31.414146,-15.392617,696.2 31.413901,-15.393654,694.9 31.413317,-15.394586,690.3 31.413217,-15.394726,690.8 31.413259,-15.394440,690.3 31.414440,-15.392709,698.4 31.414513,-15.393257,698.3 31.413132,-15.395060,690.8 31.413361,-15.394446,690.3 31.414458,-15.393042,698.3 31.414426,-15.393863,687.6 31.414192,-15.394242,687.3 31.412554,-15.396051,695.4 31.413028,-15.394785,690.8 31.413743,-15.393610,694.9 31.413909,-15.393350,694.9 31.414483,-15.393229,698.3 31.413030,-15.395982,699.0 31.412919,-15.396063,699.0 31.412844,-15.395758,699.0 31.414395,-15.393143,698.3 31.414803,-15.393558,698.3 31.412578,-15.396840,702.6 31.412442,-15.396958,702.6 31.412255,-15.396799,702.6 31.412336,-15.396590,702.6 31.412486,-15.396303,695.4 31.413980,-15.393833,687.3 31.414381,-15.394285,687.6 31.414202,-15.394990,694.1 31.414049,-15.395261,694.1 31.413037,-15.396030,699.0 31.413010,-15.395938,699.0 31.413683,-15.393815,694.9 31.413836,-15.393605,694.9 31.414815,-15.393385,698.3 31.414196,-15.395831,701.2 31.413188,-15.396444,705.4 31.413351,-15.394979,690.8 31.414567,-15.394260,687.6 31.414728,-15.394335,687.6 31.414365,-15.396102,699.8 31.413469,-15.396671,705.4 31.413719,-15.395770,701.2 31.414199,-15.395270,694.1 31.414292,-15.395232,694.1 31.414819,-15.395638,699.8 31.414778,-15.395805,699.8 31.414109,-15.396557,708.2 31.413800,-15.396030,701.2 31.414028,-15.395679,701.2 31.413945,-15.396420,708.2 31.413530,-15.396762,708.2 31.413689,-15.396444,708.2 31.413877,-15.396379,708.2 31.413906,-15.397147,708.2 31.413325,-15.397622,720.0 31.413432,-15.396966,705.4 31.414089,-15.396779,708.2 31.413953,-15.397834,713.9 31.412900,-15.397964,720.0 31.412825,-15.397876,720.0 31.412938,-15.397184,720.0 31.413505,-15.396979,705.4 31.413316,-15.397738,720.0 31.413267,-15.397774,720.0 31.412806,-15.397249,720.0 31.414020,-15.395397,694.1 31.414163,-15.395367,694.1 31.414167,-15.396665,708.2 31.412830,-15.396946,705.4 31.413323,-15.395607,699.0 31.413698,-15.396301,701.2 31.413327,-15.396707,705.4 31.413677,-15.395479,694.1 31.413999,-15.395918,701.2 31.413429,-15.396371,705.4 31.413411,-15.395705,699.0 31.413665,-15.395294,694.1 31.413718,-15.395245,694.1 31.413990,-15.395518,701.2 31.413975,-15.395632,701.2 31.413413,-15.396351,705.4 31.413299,-15.395827,699.0 31.413877,-15.395083,694.1 31.414143,-15.396976,708.2 31.412782,-15.397942,720.0 31.412685,-15.397893,720.0 31.412688,-15.396934,705.4 31.413312,-15.397125,705.4 31.413093,-15.399093,732.9 31.413030,-15.399128,732.9 31.412971,-15.398141,731.5 31.413922,-15.397312,713.9 31.414022,-15.397331,713.9 31.414362,-15.398033,711.2 31.413485,-15.397962,720.0 31.413322,-15.397038,705.4 31.414603,-15.396483,703.0 31.415216,-15.396633,696.9 31.415389,-15.396769,696.9 31.415032,-15.398013,711.2 31.414870,-15.398072,711.2 31.413784,-15.397819,713.9 31.413791,-15.397702,713.9 31.415048,-15.396724,703.0 31.416027,-15.397412,714.4 31.415996,-15.397606,701.2 31.414768,-15.398576,711.2 31.414610,-15.398601,711.2 31.414315,-15.398184,728.3 31.414379,-15.398089,711.2 31.416287,-15.397165,714.4 31.416455,-15.397159,714.4 31.416879,-15.397951,723.7 31.416580,-15.397463,714.4 31.418314,-15.395692,701.7 31.418517,-15.396799,710.3 31.416508,-15.397938,714.4 31.417198,-15.396772,708.6 31.418836,-15.397161,719.8 31.417602,-15.398955,716.1 31.417228,-15.398422,722.3 31.419687,-15.395843,697.8 31.418986,-15.397069,710.3 31.416759,-15.397577,714.4 31.417897,-15.395912,701.7 31.418032,-15.395962,701.7 31.417546,-15.397762,723.7 31.418611,-15.395820,699.2 31.419829,-15.395425,697.3 31.419804,-15.395597,697.8 31.417645,-15.396849,708.6 31.417660,-15.396646,708.6 31.420912,-15.393720,690.1 31.421038,-15.394766,705.0 31.418453,-15.396742,712.0 31.419911,-15.394369,691.9 31.421617,-15.393320,691.1 31.417577,-15.398579,722.3 31.417942,-15.397128,712.0 31.419677,-15.395797,697.8 31.418938,-15.398175,714.8 31.417201,-15.398292,722.3 31.420176,-15.395472,702.9 31.420946,-15.396276,703.9 31.417618,-15.398282,722.3 31.419883,-15.395425,697.3 31.421932,-15.393996,706.3 31.418155,-15.397906,724.0 31.417967,-15.398028,719.8 31.418288,-15.396972,712.0 31.420776,-15.394251,693.8 31.418452,-15.398454,719.8 31.417771,-15.398798,719.8 31.420176,-15.396132,703.9 31.420422,-15.396752,702.8 31.418181,-15.398180,719.8 31.419819,-15.395527,697.8 31.421854,-15.393948,706.3 31.417565,-15.398662,722.3 31.416253,-15.399405,711.5 31.419521,-15.395664,697.8 31.420298,-15.396329,702.8 31.418211,-15.398658,719.8 31.418623,-15.396963,710.3 31.420999,-15.395246,702.9 31.420829,-15.397580,704.8 31.417794,-15.399096,728.3 31.417750,-15.397758,724.0 31.419539,-15.396887,703.6 31.419437,-15.398917,718.3 31.419139,-15.399199,722.6 31.418182,-15.399584,728.3 31.418108,-15.399466,728.3 31.420602,-15.396497,702.8 31.422149,-15.395065,714.6 31.422182,-15.395196,714.6 31.421255,-15.397837,708.6 31.418114,-15.399201,728.3 31.418087,-15.397191,724.0 31.419606,-15.396106,697.8 31.419718,-15.396171,697.8 31.418968,-15.399027,722.6 31.418706,-15.399344,722.6 31.418126,-15.399800,735.2 31.418097,-15.399715,735.2 31.420752,-15.396592,702.8 31.421137,-15.396004,714.5 31.422399,-15.395081,714.6 31.422390,-15.395224,714.6 31.420577,-15.398362,711.3 31.417176,-15.399812,720.6 31.417114,-15.399722,720.6 31.417958,-15.397754,724.0 31.419509,-15.397106,703.6 31.419513,-15.397285,706.5 31.417592,-15.400267,720.6 31.418808,-15.397472,719.8 31.422145,-15.394854,714.6 31.419173,-15.398781,714.8 31.418702,-15.397986,714.8 31.421156,-15.395781,714.5 31.421190,-15.395838,714.5 31.418233,-15.399195,728.3 31.418147,-15.398380,719.8 31.421169,-15.395877,714.5 31.418385,-15.398576,719.8 31.418036,-15.397723,724.0 31.421525,-15.394310,699.5 31.421039,-15.395881,714.5 31.418950,-15.396328,710.3 31.421430,-15.391694,681.5 31.422878,-15.390979,691.3 31.421870,-15.392639,694.5 31.421723,-15.392751,684.3 31.421098,-15.392310,684.3 31.421755,-15.391141,682.6 31.422186,-15.391247,684.3 31.422363,-15.391396,685.2 31.421578,-15.394437,699.5 31.420577,-15.393659,690.1 31.420547,-15.393452,690.1 31.421345,-15.392169,684.3 31.421560,-15.393397,691.1 31.419068,-15.393074,683.6 31.419870,-15.392457,693.8 31.421175,-15.392771,684.3 31.420464,-15.392506,685.1 31.420881,-15.391978,691.4 31.421506,-15.392604,684.3 31.420846,-15.392362,685.1 31.421125,-15.391906,681.5 31.422348,-15.392946,694.5 31.421270,-15.393408,691.1 31.421046,-15.393379,691.1 31.420302,-15.392414,685.1 31.421705,-15.391591,681.5 31.421886,-15.391633,685.2 31.422348,-15.392946,694.5 31.422264,-15.393052,694.6 31.420625,-15.393040,690.1 31.420593,-15.392831,685.1 31.420534,-15.391901,691.4 31.422369,-15.393092,694.6 31.420931,-15.393238,690.1 31.421074,-15.390391,687.2 31.422489,-15.390711,684.3 31.421504,-15.393041,691.1 31.419074,-15.392326,699.9 31.419453,-15.391663,703.1 31.421837,-15.394572,699.5 31.419886,-15.395998,697.8 31.419062,-15.394307,691.2 31.420368,-15.393138,690.1 31.421820,-15.395301,705.0 31.421670,-15.395550,714.5 31.419376,-15.396433,703.6 31.419083,-15.396323,710.3 31.419721,-15.392726,693.8 31.422418,-15.390308,679.8 31.422772,-15.393685,710.0 31.419832,-15.396332,703.6 31.419581,-15.396287,697.8 31.420080,-15.392966,693.8 31.423155,-15.389617,674.4 31.423338,-15.389732,682.0 31.422495,-15.394893,714.6 31.421007,-15.396844,709.8 31.420968,-15.396220,703.9 31.421686,-15.395339,705.0 31.422346,-15.395325,714.6 31.422427,-15.395598,721.5 31.421129,-15.397145,709.8 31.420685,-15.397402,704.8 31.417406,-15.398272,722.3 31.417435,-15.397279,723.7 31.422060,-15.394157,706.3 31.422360,-15.394135,706.3 31.422958,-15.395539,730.1 31.417322,-15.399009,716.1 31.414630,-15.398716,711.2 31.417128,-15.394983,692.8 31.417497,-15.394693,692.8 31.418057,-15.394392,690.2 31.414055,-15.398225,728.3 31.414028,-15.398207,728.3 31.417337,-15.397397,723.7 31.417002,-15.397854,723.7 31.416197,-15.398254,714.7 31.416046,-15.398243,714.7 31.415535,-15.397889,701.2 31.415719,-15.397319,701.2 31.416269,-15.396911,707.7 31.417534,-15.396467,708.6 31.418293,-15.396657,712.0 31.418305,-15.396766,712.0 31.417810,-15.397420,724.0 31.416875,-15.397885,723.7 31.416219,-15.397817,714.4 31.416044,-15.397649,714.4 31.415978,-15.397527,701.2 31.416146,-15.396842,707.7 31.416275,-15.396665,707.7 31.417269,-15.395931,698.3 31.417718,-15.396116,701.7 31.417730,-15.396299,701.7 31.417270,-15.397407,723.7 31.417196,-15.397582,723.7 31.416775,-15.397989,714.7 31.416444,-15.397922,714.4 31.416224,-15.397344,714.4 31.416647,-15.396644,707.7 31.417503,-15.396142,698.3 31.418175,-15.396494,712.0 31.417633,-15.397518,723.7 31.417256,-15.397921,723.7 31.417141,-15.397992,722.3 31.416652,-15.398006,714.7 31.416569,-15.397937,714.4 31.416369,-15.397382,714.4 31.416415,-15.397223,714.4 31.417175,-15.396430,708.6 31.417735,-15.396330,712.0 31.417837,-15.396399,712.0 31.417762,-15.397231,724.0 31.417057,-15.398213,722.3 31.416467,-15.398314,714.7 31.416119,-15.397869,714.4 31.416498,-15.396928,707.7 31.417683,-15.396169,701.7 31.418593,-15.396245,699.2 31.417879,-15.397480,724.0 31.417009,-15.398234,722.3 31.416838,-15.398315,714.7 31.416336,-15.398336,714.7 31.416155,-15.397956,714.4 31.416586,-15.397140,707.7 31.416770,-15.396947,707.7 31.418055,-15.396204,701.7 31.418197,-15.396167,701.7 31.418689,-15.396812,710.3 31.417747,-15.398183,719.8 31.416872,-15.398453,722.3 31.416748,-15.398428,714.7 31.416208,-15.397905,714.4 31.416192,-15.397786,714.4 31.416539,-15.396976,707.7 31.418203,-15.395944,701.7 31.418469,-15.395860,701.7 31.419140,-15.395933,699.2 31.419228,-15.396067,699.2 31.418273,-15.397094,712.0 31.417253,-15.397450,723.7 31.416849,-15.397377,723.7 31.416720,-15.397309,714.4 31.416394,-15.396580,707.7 31.416935,-15.395207,692.8 31.418183,-15.393820,690.2 31.418442,-15.393640,686.9 31.418623,-15.393558,683.6 31.419343,-15.393737,685.8 31.418606,-15.395591,699.2 31.416990,-15.396805,708.6 31.416793,-15.396879,707.7 31.416298,-15.396792,707.7 31.416045,-15.396132,700.5 31.416062,-15.395923,700.5 31.416654,-15.394537,688.2 31.416821,-15.394252,688.2 31.417499,-15.393464,694.5 31.417938,-15.393283,686.9 31.418147,-15.393300,686.9 31.418415,-15.394690,696.4 31.417070,-15.396404,708.6 31.416869,-15.396574,708.6 31.416343,-15.396773,707.7 31.415974,-15.396302,692.1 31.415952,-15.396121,692.1 31.416394,-15.394828,693.6 31.417134,-15.393823,686.9 31.417959,-15.393943,690.2 31.418017,-15.394184,690.2 31.417995,-15.394507,690.2 31.417884,-15.394880,696.4 31.416961,-15.396150,698.3 31.416289,-15.396653,707.7 31.415927,-15.396589,696.9 31.415836,-15.396285,692.1 31.415973,-15.396032,692.1 31.416008,-15.396001,700.5 31.416062,-15.395958,700.5 31.414769,-15.396411,703.0 31.414985,-15.396190,699.8 31.415185,-15.396034,692.1 31.415417,-15.395905,692.1 31.415485,-15.395879,692.1 31.415608,-15.395842,692.1 31.415733,-15.395845,692.1 31.415788,-15.395879,692.1 31.415794,-15.395906,692.1 31.415766,-15.395960,692.1 31.415414,-15.396177,692.1 31.415239,-15.396239,692.1 31.415125,-15.396269,699.8 31.415161,-15.396179,699.8 31.415510,-15.395832,692.1 31.415860,-15.395509,692.1 31.415984,-15.395416,689.5 31.416068,-15.395359,693.6 31.416085,-15.395368,693.6 31.416088,-15.395447,693.6 31.416039,-15.395630,700.5 31.416017,-15.395695,700.5 31.415934,-15.395832,692.1 31.415889,-15.395878,692.1 31.415870,-15.395855,692.1 31.415839,-15.395691,692.1 31.415849,-15.395642,692.1 31.415887,-15.395534,692.1 31.415987,-15.395398,689.5 31.416081,-15.395316,693.6 31.416140,-15.395297,693.6 31.416178,-15.395314,693.6 31.416160,-15.395365,693.6 31.416122,-15.395412,693.6 31.416035,-15.395479,693.6 31.416123,-15.395347,693.6 31.416168,-15.395296,693.6 31.416219,-15.395225,693.6 31.416251,-15.395206,693.6 31.416195,-15.395296,693.6 31.416057,-15.395481,693.6 31.415958,-15.395594,692.1 31.414555,-15.396104,699.8 31.415541,-15.395143,689.5 31.415405,-15.395371,689.5 31.415306,-15.395521,692.1 31.415056,-15.395876,699.8 31.415006,-15.395958,699.8 31.415093,-15.395878,699.8 31.415287,-15.395696,692.1 31.415586,-15.395393,689.5 31.415635,-15.395345,689.5 31.415689,-15.395285,689.5 31.415676,-15.395316,689.5 31.415606,-15.395490,692.1 31.415331,-15.395942,692.1 31.415174,-15.396135,692.1 31.414811,-15.396573,703.0 31.414765,-15.396621,703.0 31.414825,-15.396550,703.0 31.415196,-15.396052,692.1 31.415426,-15.395693,692.1 31.415488,-15.395570,692.1 31.415385,-15.395734,692.1 31.415156,-15.396014,699.8 31.415085,-15.396089,699.8 31.414904,-15.396256,699.8 31.414944,-15.396201,699.8 31.414980,-15.396124,699.8 31.416274,-15.395264,693.6 31.416475,-15.395090,693.6 31.416517,-15.395072,693.6 31.416551,-15.395150,693.6 31.416551,-15.395208,693.6 31.416543,-15.395347,693.6 31.416548,-15.395456,693.6 31.416528,-15.395508,700.5 31.416368,-15.395689,700.5 31.416077,-15.395898,700.5 31.415890,-15.396000,692.1 31.415903,-15.395907,692.1 31.416193,-15.395535,700.5 31.416703,-15.395076,693.6 31.417125,-15.394807,692.8 31.417308,-15.394774,692.8 31.417361,-15.394917,692.8 31.417331,-15.394997,692.8 31.417153,-15.395207,692.8 31.416972,-15.395369,692.8 31.416409,-15.395845,700.5 31.415896,-15.396172,692.1 31.415646,-15.396286,692.1 31.415595,-15.396305,692.1 31.415588,-15.396225,692.1 31.415760,-15.396015,692.1 31.416023,-15.395785,700.5 31.416073,-15.395747,700.5 31.416132,-15.395704,700.5 31.416172,-15.395706,700.5 31.416134,-15.395812,700.5 31.415871,-15.396094,692.1 31.415429,-15.396425,696.9 31.415160,-15.396572,703.0 31.415113,-15.396588,703.0 31.415141,-15.396507,703.0 31.415483,-15.396118,692.1 31.415660,-15.395949,692.1 31.415979,-15.395653,692.1 31.416095,-15.395582,700.5 31.416073,-15.395684,700.5 31.416055,-15.395732,700.5 31.415935,-15.395926,692.1 31.415830,-15.396059,692.1 31.415864,-15.396004,692.1 31.416133,-15.395673,700.5 31.416336,-15.395443,693.6 31.416408,-15.395371,693.6 31.416412,-15.395392,693.6 31.416341,-15.395582,700.5 31.415951,-15.396054,692.1 31.415423,-15.396492,696.9 31.415237,-15.396593,696.9 31.415149,-15.396534,703.0 31.415826,-15.395870,692.1 31.416126,-15.395639,700.5 31.416860,-15.395089,692.8 31.417148,-15.394922,692.8 31.417184,-15.394920,692.8 31.417037,-15.395120,692.8 31.416486,-15.395643,700.5 31.415912,-15.396095,692.1 31.415781,-15.396189,692.1 31.415622,-15.396288,692.1 31.415740,-15.396150,692.1 31.415995,-15.395881,692.1 31.416154,-15.395712,700.5 31.416435,-15.395438,693.6 31.416525,-15.395370,693.6 31.416527,-15.395420,693.6 31.416288,-15.395744,700.5 31.415696,-15.396289,692.1 31.415273,-15.396571,696.9 31.415142,-15.396629,703.0 31.415138,-15.396598,703.0 31.415543,-15.396143,692.1 31.415713,-15.395983,692.1 31.416216,-15.395547,700.5 31.416455,-15.395386,693.6 31.416511,-15.395376,693.6 31.416516,-15.395402,693.6 31.416387,-15.395603,700.5 31.416274,-15.395743,700.5 31.415721,-15.396235,692.1 31.415067,-15.396645,703.0 31.414715,-15.396809,703.0 31.414651,-15.396831,703.0 31.414671,-15.396783,703.0 31.415144,-15.396436,703.0 31.415419,-15.396243,692.1 31.416168,-15.395718,700.5 31.416434,-15.395548,700.5 31.416466,-15.395530,700.5 31.416460,-15.395571,700.5 31.416432,-15.395619,700.5 31.416317,-15.395760,700.5 31.416204,-15.395886,700.5 31.415650,-15.396353,696.9 31.415149,-15.396656,703.0 31.415004,-15.396712,703.0 31.414991,-15.396684,703.0 31.415249,-15.396425,696.9 31.415399,-15.396307,692.1 31.415923,-15.395935,692.1 31.416140,-15.395846,700.5 31.416237,-15.395839,700.5 31.416283,-15.395891,700.5 31.416233,-15.396024,700.5 31.416016,-15.396247,700.5 31.415853,-15.396355,696.9 31.415365,-15.396635,696.9 31.415098,-15.396732,703.0 31.415047,-15.396745,703.0 31.415058,-15.396710,703.0 31.415138,-15.396655,703.0 31.415597,-15.396363,696.9 31.416109,-15.396058,700.5 31.416341,-15.395944,700.5 31.416408,-15.395923,700.5 31.416405,-15.395971,700.5 31.416191,-15.396186,700.5 31.415701,-15.396514,696.9 31.415184,-15.396756,696.9 31.414957,-15.396820,703.0 31.414854,-15.396802,703.0 31.414850,-15.396773,703.0 31.415012,-15.396607,703.0 31.415553,-15.396259,692.1 31.416179,-15.395940,700.5 31.416553,-15.395825,700.5 31.416670,-15.395835,700.5 31.416667,-15.395900,700.5 31.416446,-15.396106,700.5 31.415844,-15.396454,696.9 31.415473,-15.396578,696.9 31.415333,-15.396567,696.9 31.415377,-15.396457,696.9 31.415490,-15.396364,696.9 31.416008,-15.396001,700.5 31.416192,-15.395880,700.5 31.416642,-15.395639,700.5 31.416813,-15.395580,700.5 31.416855,-15.395611,698.3 31.416720,-15.395776,700.5 31.416269,-15.396129,700.5 31.416105,-15.396226,700.5 31.415705,-15.396428,696.9 31.415608,-15.396459,696.9 31.415586,-15.396367,696.9 31.415662,-15.396276,692.1 31.416133,-15.395777,700.5 31.416691,-15.395279,693.6 31.417095,-15.395017,692.8 31.417164,-15.394990,692.8 31.417257,-15.394996,692.8 31.417229,-15.395160,692.8 31.416861,-15.395564,698.3 31.416672,-15.395721,700.5 31.416074,-15.396167,700.5 31.415580,-15.396391,696.9 31.415397,-15.396413,696.9 31.415361,-15.396332,696.9 31.415402,-15.396270,692.1 31.415880,-15.395836,692.1 31.416714,-15.395223,693.6 31.417002,-15.395055,692.8 31.417467,-15.394823,692.8 31.417578,-15.394817,692.8 31.417581,-15.394848,692.8 31.417426,-15.395091,692.8 31.416822,-15.395616,700.5 31.415895,-15.396254,692.1 31.415337,-15.396494,696.9 31.415256,-15.396512,696.9 31.415192,-15.396522,696.9 31.415084,-15.396470,703.0 31.415165,-15.396324,703.0 31.415602,-15.395974,692.1 31.416110,-15.395660,700.5 31.416476,-15.395505,700.5 31.416564,-15.395523,700.5 31.416566,-15.395555,700.5 31.416427,-15.395723,700.5 31.416089,-15.395979,700.5 31.415637,-15.396224,692.1 31.415447,-15.396310,692.1 31.415310,-15.396334,696.9 31.415223,-15.396271,692.1 31.415333,-15.396096,692.1 31.415471,-15.395969,692.1 31.415933,-15.395609,692.1 31.416461,-15.395300,693.6 31.416579,-15.395242,693.6 31.416803,-15.395171,693.6 31.416863,-15.395176,692.8 31.416859,-15.395213,692.8 31.416816,-15.395265,693.6 31.416561,-15.395485,700.5 31.416242,-15.395681,700.5 31.416074,-15.395751,700.5 31.416027,-15.395768,700.5 31.416116,-15.395689,700.5 31.416520,-15.395383,693.6 31.416669,-15.395287,693.6 31.417140,-15.395018,692.8 31.417203,-15.395011,692.8 31.416988,-15.395222,692.8 31.416734,-15.395428,693.6 31.416610,-15.395512,700.5 31.416706,-15.395404,693.6 31.416993,-15.395125,692.8 31.417090,-15.395050,692.8 31.417156,-15.394999,692.8 31.417208,-15.394972,692.8 31.417260,-15.394939,692.8 31.417254,-15.395053,692.8 31.417056,-15.395279,692.8 31.416841,-15.395474,692.8 31.416758,-15.395527,700.5 31.416754,-15.395426,693.6 31.416804,-15.395345,693.6 31.416917,-15.395202,692.8</coordinates>
  </LineString>
</Placemark>
<Placemark>
  <name>Elev 694m</name>
  <Point><coordinates>31.416333,-15.395317,693.6</coordinates></Point>
</Placemark>
<Placemark>
  <name>Elev 694m</name>
  <Point><coordinates>31.416125,-15.395325,693.6</coordinates></Point>
</Placemark>
<Placemark>
  <name>Elev 690m</name>
  <Point><coordinates>31.415486,-15.395328,689.5</coordinates></Point>
</Placemark>
<Placemark>
  <name>Elev 708m</name>
  <Point><coordinates>31.416295,-15.396715,707.7</coordinates></Point>
</Placemark>
<Placemark>
  <name>Elev 690m</name>
  <Point><coordinates>31.415542,-15.394837,689.5</coordinates></Point>
</Placemark>
<Placemark>
  <name>Elev 700m</name>
  <Point><coordinates>31.414801,-15.395525,699.8</coordinates></Point>
</Placemark>
<Placemark>
  <name>Elev 688m</name>
  <Point><coordinates>31.415171,-15.394538,687.6</coordinates></Point>
</Placemark>
<Placemark>
  <name>Elev 695m</name>
  <Point><coordinates>31.414477,-15.395454,695.4</coordinates></Point>
</Placemark>
<Placemark>
  <name>Elev 703m</name>
  <Point><coordinates>31.414638,-15.397145,703.0</coordinates></Point>
</Placemark>
<Placemark>
  <name>Elev 714m</name>
  <Point><coordinates>31.416093,-15.397403,714.4</coordinates></Point>
</Placemark>
<Placemark>
  <name>Elev 703m</name>
  <Point><coordinates>31.415094,-15.397047,703.0</coordinates></Point>
</Placemark>
<Placemark>
  <name>Elev 708m</name>
  <Point><coordinates>31.416602,-15.396636,707.7</coordinates></Point>
</Placemark>
<Placemark>
  <name>Elev 690m</name>
  <Point><coordinates>31.417837,-15.394016,690.2</coordinates></Point>
</Placemark>
<Placemark>
  <name>Elev 688m</name>
  <Point><coordinates>31.415625,-15.394008,687.8</coordinates></Point>
</Placemark>
<Placemark>
  <name>Elev 722m</name>
  <Point><coordinates>31.416900,-15.398459,722.3</coordinates></Point>
</Placemark>
<Placemark>
  <name>Elev 702m</name>
  <Point><coordinates>31.419462,-15.390967,702.3</coordinates></Point>
</Placemark>
<Placemark>
  <name>Elev 691m</name>
  <Point><coordinates>31.421194,-15.393325,691.1</coordinates></Point>
</Placemark>
<Placemark>
  <name>Elev 702m</name>
  <Point><coordinates>31.415772,-15.398629,702.2</coordinates></Point>
</Placemark>
<Placemark>
  <name>Elev 722m</name>
  <Point><coordinates>31.417117,-15.398717,722.3</coordinates></Point>
</Placemark>
<Placemark>
  <name>Elev 699m</name>
  <Point><coordinates>31.419034,-15.395837,699.2</coordinates></Point>
</Placemark>
<Placemark>
  <name>Elev 701m</name>
  <Point><coordinates>31.415399,-15.397445,701.2</coordinates></Point>
</Placemark>
<Placemark>
  <name>Elev 717m</name>
  <Point><coordinates>31.416505,-15.400066,717.2</coordinates></Point>
</Placemark>
<Placemark>
  <name>Elev 716m</name>
  <Point><coordinates>31.415908,-15.399705,715.6</coordinates></Point>
</Placemark>
<Placemark>
  <name>Elev 698m</name>
  <Point><coordinates>31.414654,-15.392833,698.4</coordinates></Point>
</Placemark>
<Placemark>
  <name>Elev 705m</name>
  <Point><coordinates>31.416880,-15.392646,704.5</coordinates></Point>
</Placemark>
<Placemark>
  <name>Elev 699m</name>
  <Point><coordinates>31.417967,-15.390931,698.9</coordinates></Point>
</Placemark>
<Placemark>
  <name>Elev 700m</name>
  <Point><coordinates>31.414778,-15.395805,699.8</coordinates></Point>
</Placemark>
<Placemark>
  <name>Elev 697m</name>
  <Point><coordinates>31.419883,-15.395425,697.3</coordinates></Point>
</Placemark>
<Placemark>
  <name>Elev 684m</name>
  <Point><coordinates>31.422489,-15.390711,684.3</coordinates></Point>
</Placemark>
<Placemark>
  <name>Elev 708m</name>
  <Point><coordinates>31.416539,-15.396976,707.7</coordinates></Point>
</Placemark>
<Placemark>
  <name>Elev 692m</name>
  <Point><coordinates>31.415331,-15.395942,692.1</coordinates></Point>
</Placemark>
<Placemark>
  <name>Elev 703m</name>
  <Point><coordinates>31.414651,-15.396831,703.0</coordinates></Point>
</Placemark>
<Placemark>
  <name>Elev 697m</name>
  <Point><coordinates>31.415310,-15.396334,696.9</coordinates></Point>
</Placemark>
</Document>
</kml>